{"type":"FeatureCollection","marmites":{"generated":"2026-09-11 13:06","generator":"code/tools/gis_to_dataset.py","source":"E:\\00code_ws\\LAMATA_new\\GIS\\Soil_type.shp","size":62612,"mtime":"2014-12-26 17:02","features":27,"crs":"EPSG:23029"},"features":[{"type":"Feature","geometry":{"type":"Polygon","coordinates":[[[739715.8,4555446.0],[739714.4,4555426.35],[739698.26,4555426.35],[739679.32,4555427.76],[739677.21,4555428.46],[739663.88,4555414.43],[739652.66,4555391.27],[739650.55,4555365.31],[739657.57,4555340.76],[739648.45,4555326.72],[739641.43,4555312.69],[739628.1,4555305.68],[739602.14,4555309.18],[739584.6,4555319.01],[739573.38,4555332.34],[739567.33,4555336.87],[739556.54,4555344.97],[739557.24,4555364.61],[739562.85,4555382.15],[739560.75,4555406.71],[739557.94,4555422.85],[739561.45,4555438.98],[739567.76,4555441.09],[739595.13,4555441.09],[739612.67,4555443.89],[739625.29,4555447.4],[739632.31,4555456.52],[739643.54,4555476.17],[739670.9,4555481.08],[739675.62,4555481.08],[739696.16,4555481.08],[739710.19,4555470.56],[739715.8,4555459.33],[739715.8,4555446.0]],[[739636.52,4555582.11],[739654.76,4555574.39],[739672.3,4555578.6],[739686.33,4555580.71],[739696.86,4555568.78],[739698.96,4555551.95],[739698.96,4555551.94],[739696.11,4555548.2],[739687.74,4555537.21],[739677.21,4555526.68],[739671.96,4555524.06],[739656.17,4555516.16],[739640.03,4555502.13],[739635.12,4555483.18],[739619.68,4555469.15],[739611.57,4555453.01],[739598.79,4555448.82],[739588.81,4555455.12],[739569.87,4555453.72],[739552.33,4555456.52],[739544.61,4555460.03],[739543.98,4555469.83],[739543.21,4555481.78],[739542.48,4555488.36],[739541.1,4555500.72],[739539.0,4555518.26],[739539.0,4555542.12],[739539.7,4555565.27],[739546.01,4555587.72],[739546.71,4555610.18],[739547.95,4555617.42],[739550.32,4555631.31],[739550.96,4555642.86],[739554.81,4555653.77],[739558.34,4555661.47],[739561.87,4555671.42],[739563.15,4555678.8],[739563.15,4555690.67],[739566.36,4555709.28],[739569.01,4555714.91],[739570.57,4555718.22],[739576.88,4555741.38],[739587.41,4555742.78],[739593.02,4555737.17],[739601.44,4555727.35],[739611.96,4555709.8],[739615.6,4555703.3],[739613.41,4555690.27],[739610.14,4555677.72],[739609.04,4555662.44],[739614.5,4555656.43],[739617.78,4555644.97],[739622.63,4555630.33],[739621.79,4555615.09],[739623.89,4555595.44],[739636.52,4555582.11]]]},"properties":{"SoilType":"Outcrop","SoilCode":3,"SOILthick":0.05,"ibound_l1":0,"ibound_l2":1,"iuzfbnd":2}},{"type":"Feature","geometry":{"type":"Polygon","coordinates":[[[739911.55,4555435.33],[739934.0,4555429.02],[739954.35,4555422.0],[740010.48,4555411.48],[740032.93,4555403.06],[740059.59,4555382.71],[740086.96,4555363.07],[740112.21,4555360.26],[740119.23,4555345.53],[740110.11,4555337.81],[740088.58,4555324.45],[740060.29,4555326.58],[740028.02,4555337.81],[739998.55,4555353.95],[739989.43,4555376.4],[739975.4,4555387.62],[739951.54,4555397.45],[739920.67,4555398.85],[739892.61,4555396.75],[739879.28,4555412.18],[739887.7,4555429.72],[739911.55,4555435.33]]]},"properties":{"SoilType":"Outcrop","SoilCode":3,"SOILthick":0.05,"ibound_l1":0,"ibound_l2":1,"iuzfbnd":2}},{"type":"Feature","geometry":{"type":"Polygon","coordinates":[[[740023.11,4555581.97],[740018.07,4555575.45],[740011.18,4555566.54],[739978.91,4555541.28],[739955.05,4555517.42],[739936.81,4555501.99],[739904.54,4555471.82],[739891.91,4555459.89],[739867.35,4555445.86],[739846.3,4555434.63],[739839.62,4555432.4],[739825.25,4555427.62],[739794.38,4555429.02],[739790.17,4555433.93],[739787.37,4555450.07],[739793.68,4555471.82],[739796.21,4555480.47],[739794.04,4555494.36],[739788.58,4555509.64],[739782.03,4555515.64],[739768.94,4555516.73],[739747.11,4555511.28],[739731.83,4555504.73],[739723.1,4555511.82],[739720.01,4555520.93],[739724.22,4555544.08],[739735.45,4555569.34],[739753.69,4555593.2],[739774.04,4555610.74],[739796.49,4555623.37],[739783.86,4555638.1],[739754.39,4555636.7],[739741.76,4555628.28],[739726.33,4555630.38],[739712.29,4555641.61],[739705.98,4555657.04],[739712.29,4555673.18],[739729.13,4555684.41],[739744.57,4555694.93],[739760.71,4555705.45],[739788.77,4555708.96],[739810.52,4555717.38],[739831.57,4555727.91],[739845.6,4555727.2],[739863.14,4555718.08],[739874.37,4555707.56],[739882.79,4555700.54],[739884.89,4555657.75],[739859.63,4555630.38],[739844.2,4555607.93],[739842.79,4555586.88],[739849.11,4555572.15],[739871.56,4555571.45],[739887.7,4555583.37],[739909.45,4555597.41],[739926.29,4555610.04],[739955.75,4555616.35],[739970.49,4555617.75],[739988.73,4555617.05],[740011.88,4555600.21],[740023.11,4555581.97]]]},"properties":{"SoilType":"Outcrop","SoilCode":3,"SOILthick":0.05,"ibound_l1":0,"ibound_l2":1,"iuzfbnd":2}},{"type":"Feature","geometry":{"type":"Polygon","coordinates":[[[740254.86,4555251.77],[740255.1,4555247.66],[740254.86,4555241.38],[740254.13,4555230.99],[740251.23,4555227.12],[740249.06,4555225.43],[740241.32,4555225.67],[740237.86,4555229.68],[740234.56,4555233.16],[740232.62,4555237.99],[740234.31,4555245.73],[740234.8,4555255.4],[740231.41,4555265.07],[740227.57,4555277.57],[740229.96,4555281.5],[740234.31,4555284.4],[740237.94,4555282.47],[740242.53,4555279.33],[740246.64,4555274.98],[740250.75,4555269.9],[740251.23,4555259.75],[740253.66,4555254.41],[740254.86,4555251.77]]]},"properties":{"SoilType":"Outcrop","SoilCode":3,"SOILthick":0.05,"ibound_l1":0,"ibound_l2":1,"iuzfbnd":2}},{"type":"Feature","geometry":{"type":"Polygon","coordinates":[[[740428.86,4555111.14],[740436.72,4555109.17],[740443.47,4555104.41],[740442.28,4555085.36],[740433.55,4555072.26],[740419.66,4555054.8],[740417.28,4555040.12],[740419.26,4555021.86],[740419.66,4555002.81],[740422.44,4554989.32],[740442.68,4554983.76],[740460.54,4554982.57],[740451.01,4554961.54],[740442.28,4554950.82],[740428.09,4554947.78],[740425.61,4554947.25],[740402.59,4554946.06],[740389.89,4554954.79],[740368.46,4554971.06],[740347.43,4554976.62],[740330.76,4554985.35],[740318.85,4554996.86],[740313.3,4555019.08],[740317.26,4555042.9],[740324.98,4555070.67],[740326.43,4555075.88],[740327.19,4555078.61],[740340.68,4555108.78],[740352.98,4555130.61],[740370.45,4555127.03],[740384.34,4555122.67],[740401.4,4555119.89],[740417.67,4555113.94],[740424.99,4555112.11],[740428.86,4555111.14]]]},"properties":{"SoilType":"Outcrop","SoilCode":3,"SOILthick":0.05,"ibound_l1":0,"ibound_l2":1,"iuzfbnd":2}},{"type":"Feature","geometry":{"type":"Polygon","coordinates":[[[740580.39,4554991.3],[740575.63,4554966.7],[740565.31,4554946.85],[740554.2,4554929.79],[740545.07,4554909.15],[740530.39,4554891.69],[740512.92,4554882.95],[740497.45,4554889.3],[740495.9,4554891.58],[740490.29,4554899.84],[740483.16,4554910.34],[740478.0,4554922.25],[740479.98,4554938.12],[740487.52,4554951.22],[740500.22,4554968.28],[740512.13,4554980.98],[740523.64,4554993.29],[740526.82,4555008.37],[740525.23,4555022.66],[740527.61,4555038.53],[740536.34,4555052.82],[740557.37,4555059.17],[740575.23,4555048.45],[740578.01,4555018.29],[740580.39,4554991.3]]]},"properties":{"SoilType":"Outcrop","SoilCode":3,"SOILthick":0.05,"ibound_l1":0,"ibound_l2":1,"iuzfbnd":2}},{"type":"Feature","geometry":{"type":"Polygon","coordinates":[[[740742.71,4554936.3],[740742.32,4554934.15],[740736.76,4554919.47],[740731.21,4554903.2],[740720.89,4554884.94],[740706.6,4554878.19],[740689.14,4554874.62],[740678.02,4554871.45],[740663.59,4554859.97],[740660.56,4554857.55],[740639.13,4554860.33],[740622.86,4554864.7],[740598.25,4554875.81],[740593.49,4554886.53],[740603.41,4554898.04],[740609.37,4554910.74],[740619.29,4554932.17],[740620.08,4554948.04],[740619.29,4554965.11],[740613.73,4554975.82],[740612.14,4554988.52],[740612.14,4555004.0],[740625.56,4555025.76],[740626.83,4555027.81],[740697.87,4555009.56],[740724.86,4554986.54],[740740.33,4554966.3],[740745.49,4554951.61],[740742.71,4554936.3]]]},"properties":{"SoilType":"Outcrop","SoilCode":3,"SOILthick":0.05,"ibound_l1":0,"ibound_l2":1,"iuzfbnd":2}},{"type":"Feature","geometry":{"type":"Polygon","coordinates":[[[740750.65,4554854.78],[740745.49,4554844.06],[740740.33,4554841.68],[740730.81,4554835.33],[740720.49,4554831.76],[740710.57,4554831.36],[740701.04,4554834.54],[740692.71,4554843.27],[740693.5,4554855.17],[740707.39,4554866.29],[740730.81,4554863.11],[740733.71,4554865.29],[740735.1,4554866.33],[740738.75,4554869.06],[740740.33,4554869.06],[740746.29,4554866.29],[740750.65,4554854.78]]]},"properties":{"SoilType":"Outcrop","SoilCode":3,"SOILthick":0.05,"ibound_l1":0,"ibound_l2":1,"iuzfbnd":2}},{"type":"Feature","geometry":{"type":"Polygon","coordinates":[[[740793.91,4554801.6],[740769.7,4554813.5],[740768.51,4554829.77],[740769.7,4554843.72],[740770.1,4554848.43],[740777.64,4554862.71],[740789.15,4554871.45],[740798.28,4554876.6],[740815.74,4554885.34],[740825.27,4554893.27],[740829.23,4554906.77],[740827.25,4554921.85],[740824.87,4554937.33],[740818.92,4554959.55],[740826.85,4554982.57],[740835.19,4554991.3],[740850.67,4555005.99],[740866.94,4555017.5],[740884.4,4555030.99],[740908.21,4555037.74],[740937.98,4555030.99],[740955.44,4555020.27],[740975.68,4554995.27],[740984.41,4554965.9],[740980.44,4554948.44],[740973.3,4554928.2],[740959.41,4554914.31],[740935.6,4554899.62],[740912.18,4554887.32],[740889.56,4554876.6],[740864.95,4554861.92],[740838.76,4554834.14],[740793.91,4554801.6]]]},"properties":{"SoilType":"Outcrop","SoilCode":3,"SOILthick":0.05,"ibound_l1":0,"ibound_l2":1,"iuzfbnd":2}},{"type":"Feature","geometry":{"type":"Polygon","coordinates":[[[740928.45,4554761.91],[740924.48,4554745.64],[740918.93,4554742.06],[740901.46,4554754.54],[740896.7,4554757.94],[740893.93,4554768.65],[740895.51,4554779.37],[740896.31,4554793.66],[740896.7,4554803.58],[740897.1,4554821.04],[740903.85,4554834.93],[740923.69,4554838.11],[740934.01,4554828.58],[740921.31,4554819.06],[740916.15,4554798.82],[740928.85,4554778.58],[740928.45,4554761.91]]]},"properties":{"SoilType":"Outcrop","SoilCode":3,"SOILthick":0.05,"ibound_l1":0,"ibound_l2":1,"iuzfbnd":2}},{"type":"Feature","geometry":{"type":"Polygon","coordinates":[[[741025.69,4554773.02],[741031.64,4554767.86],[741035.61,4554754.37],[741030.05,4554746.03],[741019.34,4554747.62],[741010.21,4554753.57],[741012.99,4554765.08],[741017.75,4554771.43],[741025.69,4554773.02]]]},"properties":{"SoilType":"Outcrop","SoilCode":3,"SOILthick":0.05,"ibound_l1":0,"ibound_l2":1,"iuzfbnd":2}},{"type":"Feature","geometry":{"type":"Polygon","coordinates":[[[741022.12,4554883.35],[741043.55,4554878.59],[741049.1,4554865.49],[741051.88,4554845.25],[741041.56,4554833.35],[741016.56,4554840.09],[741007.83,4554859.14],[741022.12,4554883.35]]]},"properties":{"SoilType":"Outcrop","SoilCode":3,"SOILthick":0.05,"ibound_l1":0,"ibound_l2":1,"iuzfbnd":2}},{"type":"Feature","geometry":{"type":"Polygon","coordinates":[[[741032.04,4554946.85],[741065.77,4554983.76],[741078.08,4554983.36],[741089.59,4554982.57],[741099.9,4554976.62],[741111.81,4554960.74],[741107.84,4554951.61],[741102.68,4554946.45],[741091.97,4554940.1],[741079.27,4554933.75],[741070.93,4554930.98],[741059.42,4554928.99],[741045.13,4554932.96],[741032.04,4554946.85]]]},"properties":{"SoilType":"Outcrop","SoilCode":3,"SOILthick":0.05,"ibound_l1":0,"ibound_l2":1,"iuzfbnd":2}},{"type":"Feature","geometry":{"type":"Polygon","coordinates":[[[741144.75,4555013.92],[741178.09,4555027.81],[741186.03,4555017.1],[741194.76,4554997.65],[741198.73,4554982.97],[741202.69,4554967.49],[741203.89,4554951.22],[741202.3,4554933.36],[741196.34,4554921.85],[741187.22,4554913.51],[741180.47,4554903.59],[741179.68,4554880.97],[741169.36,4554863.11],[741158.64,4554859.54],[741145.54,4554854.38],[741138.0,4554852.79],[741127.69,4554859.54],[741117.76,4554867.08],[741111.81,4554877.0],[741109.03,4554889.3],[741109.43,4554901.21],[741116.18,4554913.12],[741124.91,4554923.04],[741138.4,4554930.18],[741148.72,4554935.74],[741157.05,4554945.66],[741158.24,4554954.0],[741158.64,4554964.71],[741156.66,4554971.46],[741154.28,4554977.01],[741148.72,4554986.14],[741140.39,4554995.67],[741144.75,4555013.92]]]},"properties":{"SoilType":"Outcrop","SoilCode":3,"SOILthick":0.05,"ibound_l1":0,"ibound_l2":1,"iuzfbnd":2}},{"type":"Feature","geometry":{"type":"Polygon","coordinates":[[[741057.84,4554466.63],[741040.77,4554467.43],[741020.53,4554473.78],[741001.08,4554487.67],[740986.79,4554497.99],[740982.03,4554505.13],[740981.63,4554516.64],[740981.63,4554531.32],[740986.25,4554545.74],[740987.98,4554551.17],[740999.89,4554543.23],[741010.21,4554527.35],[741032.43,4554507.91],[741055.45,4554493.22],[741062.6,4554471.79],[741057.84,4554466.63]]]},"properties":{"SoilType":"Outcrop","SoilCode":3,"SOILthick":0.05,"ibound_l1":0,"ibound_l2":1,"iuzfbnd":2}},{"type":"Feature","geometry":{"type":"Polygon","coordinates":[[[739788.76,4555985.76],[739782.67,4555980.69],[739773.89,4555973.37],[739755.93,4555965.94],[739732.39,4555965.32],[739718.76,4555965.94],[739673.54,4556000.63],[739640.09,4556030.98],[739625.22,4556048.94],[739620.89,4556065.67],[739643.81,4556065.05],[739671.06,4556054.52],[739705.75,4556041.51],[739735.48,4556027.88],[739763.36,4556014.88],[739775.75,4556007.44],[739794.95,4556006.82],[739801.76,4555998.77],[739788.76,4555985.76]]]},"properties":{"SoilType":"Outcrop","SoilCode":3,"SOILthick":0.05,"ibound_l1":0,"ibound_l2":1,"iuzfbnd":2}},{"type":"Feature","geometry":{"type":"Polygon","coordinates":[[[739953.09,4556063.77],[739953.23,4556063.76],[739963.95,4556064.85],[739969.01,4556046.47],[739978.31,4556032.84],[739995.65,4556033.46],[739991.93,4556021.69],[739981.03,4556019.12],[739960.34,4556014.26],[739929.99,4556006.82],[739918.84,4555999.39],[739894.68,4556004.34],[739877.96,4556013.02],[739889.11,4556027.88],[739893.44,4556039.03],[739899.64,4556058.24],[739902.17,4556069.87],[739902.18,4556069.9],[739907.3,4556069.29],[739953.09,4556063.77]]]},"properties":{"SoilType":"Outcrop","SoilCode":3,"SOILthick":0.05,"ibound_l1":0,"ibound_l2":1,"iuzfbnd":2}},{"type":"Feature","geometry":{"type":"Polygon","coordinates":[[[739856.28,4556007.44],[739856.28,4556004.76],[739856.28,4556002.08],[739856.28,4555994.43],[739846.36,4555975.85],[739829.02,4555977.71],[739811.68,4555993.81],[739811.68,4556016.73],[739820.35,4556025.41],[739836.45,4556013.64],[739856.28,4556007.44]]]},"properties":{"SoilType":"Outcrop","SoilCode":3,"SOILthick":0.05,"ibound_l1":0,"ibound_l2":1,"iuzfbnd":2}},{"type":"Feature","geometry":{"type":"Polygon","coordinates":[[[740501.09,4555067.15],[740514.62,4555066.59],[740523.64,4555060.95],[740519.42,4555053.06],[740514.06,4555043.76],[740508.71,4555027.97],[740498.84,4555012.47],[740491.51,4555009.65],[740483.34,4555020.64],[740485.59,4555058.13],[740501.09,4555067.15]]]},"properties":{"SoilType":"Outcrop","SoilCode":3,"SOILthick":0.05,"ibound_l1":0,"ibound_l2":1,"iuzfbnd":2}},{"type":"Feature","geometry":{"type":"Polygon","coordinates":[[[740501.66,4555148.89],[740493.77,4555139.87],[740486.44,4555131.7],[740478.26,4555121.55],[740470.09,4555113.66],[740463.04,4555110.84],[740453.74,4555110.0],[740446.41,4555111.69],[740435.7,4555116.2],[740428.95,4555119.5],[740423.02,4555122.4],[740407.8,4555125.22],[740391.16,4555133.11],[740379.61,4555143.26],[740365.8,4555153.12],[740360.72,4555167.22],[740357.92,4555181.03],[740357.06,4555185.26],[740362.7,4555192.87],[740371.72,4555198.5],[740384.12,4555198.79],[740389.47,4555195.12],[740394.83,4555182.44],[740416.53,4555170.88],[740428.94,4555164.4],[740447.26,4555159.61],[740466.14,4555164.68],[740479.95,4555169.75],[740494.89,4555174.83],[740501.09,4555171.44],[740503.91,4555162.42],[740501.66,4555148.89]]]},"properties":{"SoilType":"Outcrop","SoilCode":3,"SOILthick":0.05,"ibound_l1":0,"ibound_l2":1,"iuzfbnd":2}},{"type":"Feature","geometry":{"type":"Polygon","coordinates":[[[739460.69,4556177.77],[739487.18,4556168.57],[739500.94,4556154.29],[739508.87,4556141.06],[739515.75,4556129.95],[739522.63,4556124.12],[739543.18,4556107.03],[739564.38,4556094.7],[739583.65,4556083.9],[739598.68,4556072.72],[739610.63,4556063.09],[739625.22,4556048.94],[739640.09,4556030.98],[739673.54,4556000.63],[739718.76,4555965.94],[739732.39,4555965.32],[739755.93,4555965.94],[739773.89,4555973.37],[739782.67,4555980.69],[739788.76,4555985.76],[739811.68,4555993.81],[739829.02,4555977.71],[739846.36,4555975.85],[739856.28,4555994.43],[739856.28,4556002.08],[739856.28,4556004.76],[739856.28,4556007.44],[739868.11,4556009.51],[739877.96,4556013.02],[739894.68,4556004.34],[739918.84,4555999.39],[739929.99,4556006.82],[739960.34,4556014.26],[739981.03,4556019.12],[739991.93,4556021.69],[740008.41,4556029.17],[740018.82,4556035.34],[740032.7,4556042.66],[740046.19,4556049.21],[740056.21,4556055.38],[740063.53,4556061.16],[740072.01,4556066.94],[740083.58,4556072.72],[740095.14,4556079.66],[740111.71,4556087.76],[740134.46,4556099.32],[740154.88,4556108.19],[740168.76,4556119.75],[740183.02,4556127.46],[740208.46,4556128.61],[740227.73,4556125.15],[740246.62,4556122.45],[740268.59,4556114.35],[740283.24,4556107.8],[740298.66,4556095.85],[740314.84,4556083.52],[740325.25,4556073.11],[740334.5,4556060.78],[740337.97,4556051.53],[740332.96,4556044.97],[740317.54,4556047.67],[740285.94,4556057.31],[740276.69,4556062.32],[740258.95,4556063.09],[740243.92,4556065.79],[740226.96,4556068.1],[740208.85,4556068.1],[740185.33,4556068.1],[740173.0,4556064.63],[740160.67,4556059.62],[740144.48,4556052.68],[740123.28,4556051.14],[740109.02,4556048.83],[740098.99,4556043.82],[740093.6,4556040.73],[740080.11,4556035.34],[740065.46,4556027.63],[740048.11,4556019.15],[740033.47,4556010.28],[740019.98,4556000.26],[740004.17,4555991.4],[739986.44,4555987.54],[739971.41,4555988.31],[739950.21,4555987.54],[739939.8,4555986.0],[739927.08,4555982.92],[739915.91,4555980.99],[739902.42,4555976.36],[739892.39,4555973.66],[739865.41,4555967.88],[739851.54,4555963.64],[739843.44,4555959.02],[739839.97,4555954.01],[739841.9,4555942.44],[739858.09,4555935.12],[739880.83,4555929.72],[739900.49,4555923.17],[739932.87,4555906.98],[739947.9,4555898.89],[739957.15,4555888.87],[739961.39,4555878.07],[739960.62,4555863.81],[739953.29,4555854.18],[739944.43,4555858.03],[739937.11,4555868.05],[739932.48,4555873.06],[739922.46,4555881.93],[739908.2,4555889.64],[739895.09,4555893.11],[739879.29,4555893.49],[739861.94,4555894.26],[739848.45,4555900.04],[739841.13,4555911.61],[739827.25,4555923.17],[739813.38,4555935.51],[739799.5,4555941.67],[739787.55,4555943.99],[739774.06,4555943.21],[739755.95,4555943.6],[739724.34,4555947.07],[739708.15,4555949.77],[739698.51,4555952.08],[739680.4,4555960.56],[739668.45,4555963.64],[739660.35,4555970.97],[739648.41,4555981.37],[739643.4,4555986.38],[739635.69,4555995.25],[739621.81,4556011.82],[739607.55,4556020.3],[739595.99,4556033.02],[739583.27,4556045.74],[739575.56,4556051.53],[739563.99,4556058.08],[739550.89,4556064.63],[739536.24,4556077.35],[739525.45,4556088.53],[739514.66,4556100.48],[739498.82,4556104.02],[739487.22,4556104.39],[739473.95,4556097.67],[739463.89,4556089.2],[739452.78,4556075.44],[739441.67,4556048.45],[739437.43,4556032.58],[739433.73,4556011.94],[739430.56,4555998.18],[739429.5,4555985.48],[739436.91,4555974.37],[739447.9,4555965.97],[739473.3,4555958.03],[739492.35,4555951.68],[739505.57,4555933.69],[739516.16,4555915.17],[739519.33,4555902.47],[739521.45,4555896.12],[739541.03,4555890.3],[739568.02,4555885.53],[739580.72,4555880.24],[739597.12,4555875.48],[739611.41,4555870.19],[739623.58,4555864.9],[739614.05,4555863.31],[739598.71,4555866.48],[739577.01,4555868.6],[739562.72,4555867.54],[739542.62,4555866.48],[739518.8,4555863.84],[739489.17,4555861.72],[739468.53,4555861.72],[739449.01,4555861.79],[739466.07,4555849.07],[739477.53,4555833.24],[739483.53,4555810.87],[739486.81,4555788.49],[739489.6,4555785.27],[739495.13,4555778.92],[739502.51,4555767.04],[739514.06,4555756.78],[739522.4,4555748.11],[739529.14,4555742.34],[739533.95,4555734.63],[739537.8,4555725.97],[739542.3,4555719.55],[739550.96,4555714.1],[739557.06,4555706.08],[739560.27,4555700.62],[739563.15,4555690.67],[739563.15,4555678.8],[739561.87,4555671.42],[739558.34,4555661.47],[739554.81,4555653.77],[739550.96,4555642.86],[739550.32,4555631.31],[739547.95,4555617.42],[739546.71,4555610.18],[739546.01,4555587.72],[739539.7,4555565.27],[739539.0,4555542.12],[739539.0,4555518.26],[739541.1,4555500.72],[739542.48,4555488.36],[739543.98,4555469.83],[739544.61,4555460.03],[739552.33,4555456.52],[739569.87,4555453.72],[739588.81,4555455.12],[739598.79,4555448.82],[739611.57,4555453.01],[739619.68,4555469.15],[739635.12,4555483.18],[739640.03,4555502.13],[739656.17,4555516.16],[739671.96,4555524.06],[739677.21,4555526.68],[739687.74,4555537.21],[739696.11,4555548.2],[739698.96,4555551.95],[739712.41,4555584.96],[739719.06,4555597.81],[739728.81,4555611.54],[739737.22,4555622.17],[739741.76,4555628.28],[739754.39,4555636.7],[739783.86,4555638.1],[739796.49,4555623.37],[739774.04,4555610.74],[739753.69,4555593.2],[739735.45,4555569.34],[739724.22,4555544.08],[739720.01,4555520.93],[739723.1,4555511.82],[739731.83,4555504.73],[739747.11,4555511.28],[739768.94,4555516.73],[739782.03,4555515.64],[739788.58,4555509.64],[739794.04,4555494.36],[739796.21,4555480.47],[739793.68,4555471.82],[739787.37,4555450.07],[739790.17,4555433.93],[739794.38,4555429.02],[739825.25,4555427.62],[739839.62,4555432.4],[739846.3,4555434.63],[739867.35,4555445.86],[739891.91,4555459.89],[739904.54,4555471.82],[739936.81,4555501.99],[739955.05,4555517.42],[739978.91,4555541.28],[740011.18,4555566.54],[740018.07,4555575.45],[740023.11,4555581.97],[740041.15,4555586.73],[740057.99,4555594.7],[740090.77,4555610.65],[740114.25,4555628.82],[740136.4,4555646.1],[740153.24,4555669.58],[740171.85,4555687.3],[740195.33,4555698.38],[740211.28,4555697.93],[740223.24,4555686.41],[740226.78,4555677.11],[740216.59,4555670.46],[740197.54,4555664.7],[740174.95,4555642.11],[740164.76,4555631.92],[740155.45,4555626.16],[740128.87,4555609.77],[740111.15,4555601.79],[740094.31,4555590.72],[740081.47,4555582.74],[740068.18,4555573.88],[740051.78,4555565.91],[740034.06,4555553.06],[740016.78,4555541.54],[740003.49,4555533.56],[739985.33,4555518.06],[739972.04,4555506.1],[739955.64,4555488.82],[739939.69,4555473.75],[739928.17,4555458.25],[739914.88,4555448.06],[739911.55,4555435.33],[739887.7,4555429.72],[739879.28,4555412.18],[739892.61,4555396.75],[739920.67,4555398.85],[739951.54,4555397.45],[739975.4,4555387.62],[739989.43,4555376.4],[739998.55,4555353.95],[740028.02,4555337.81],[740060.29,4555326.58],[740088.58,4555324.45],[740110.11,4555337.81],[740119.23,4555345.53],[740129.31,4555337.92],[740136.9,4555336.58],[740139.37,4555341.12],[740141.98,4555346.04],[740144.88,4555356.19],[740154.55,4555370.45],[740162.53,4555378.18],[740174.13,4555388.58],[740182.35,4555400.42],[740192.74,4555413.71],[740206.03,4555424.83],[740221.75,4555434.74],[740237.21,4555444.41],[740250.51,4555450.69],[740267.19,4555458.67],[740282.41,4555468.82],[740295.46,4555476.56],[740304.17,4555476.31],[740302.23,4555469.55],[740291.84,4555462.05],[740274.68,4555454.32],[740258.24,4555446.34],[740241.81,4555437.4],[740225.61,4555425.07],[740209.18,4555414.2],[740194.67,4555403.08],[740184.76,4555392.93],[740176.55,4555380.84],[740174.05,4555375.85],[740171.23,4555370.21],[740165.43,4555359.33],[740161.8,4555355.22],[740155.03,4555344.83],[740148.75,4555336.94],[740147.07,4555334.83],[740151.91,4555333.93],[740164.31,4555337.47],[740183.81,4555329.5],[740200.2,4555317.54],[740209.61,4555311.67],[740221.21,4555307.07],[740232.33,4555302.24],[740242.48,4555298.13],[740250.46,4555300.06],[740256.74,4555305.14],[740263.03,4555307.56],[740271.25,4555312.15],[740279.46,4555318.43],[740304.84,4555329.55],[740311.61,4555333.9],[740318.86,4555338.5],[740326.35,4555344.3],[740334.81,4555351.55],[740346.17,4555356.62],[740365.27,4555365.81],[740376.87,4555374.75],[740393.31,4555384.42],[740415.79,4555395.78],[740430.29,4555403.27],[740443.34,4555412.21],[740458.08,4555420.43],[740470.89,4555433.73],[740480.56,4555446.54],[740489.02,4555455.48],[740501.11,4555467.32],[740512.47,4555478.68],[740525.28,4555490.53],[740534.7,4555496.81],[740539.78,4555506.96],[740557.42,4555524.85],[740572.41,4555532.34],[740584.01,4555543.7],[740597.55,4555554.34],[740614.71,4555568.36],[740623.65,4555577.54],[740633.08,4555578.75],[740643.23,4555579.23],[740650.96,4555578.27],[740663.53,4555569.32],[740666.67,4555563.28],[740666.92,4555553.37],[740663.77,4555538.38],[740653.14,4555526.78],[740639.6,4555517.84],[740624.38,4555508.17],[740611.57,4555496.09],[740596.82,4555485.93],[740578.21,4555475.54],[740562.74,4555469.5],[740554.52,4555466.11],[740528.66,4555453.06],[740507.15,4555440.25],[740482.5,4555425.27],[740462.92,4555414.15],[740443.58,4555406.66],[740430.05,4555395.78],[740403.7,4555380.07],[740382.67,4555364.84],[740363.58,4555351.31],[740347.14,4555340.91],[740326.35,4555329.31],[740311.61,4555318.92],[740298.32,4555311.67],[740287.2,4555301.51],[740280.91,4555286.29],[740281.4,4555281.94],[740283.33,4555270.33],[740290.1,4555266.71],[740297.83,4555259.22],[740307.5,4555250.03],[740316.2,4555246.41],[740328.77,4555238.91],[740338.2,4555231.42],[740344.97,4555219.58],[740347.87,4555206.77],[740351.49,4555195.41],[740357.06,4555185.26],[740357.92,4555181.03],[740360.72,4555167.22],[740365.8,4555153.12],[740379.61,4555143.26],[740391.16,4555133.11],[740407.8,4555125.22],[740423.02,4555122.4],[740428.95,4555119.5],[740435.7,4555116.2],[740446.41,4555111.69],[740453.74,4555110.0],[740463.04,4555110.84],[740470.09,4555113.66],[740478.26,4555121.55],[740486.44,4555131.7],[740493.77,4555139.87],[740501.66,4555148.89],[740515.88,4555164.88],[740521.99,4555173.33],[740536.56,4555185.85],[740547.34,4555194.88],[740559.57,4555202.17],[740564.82,4555206.54],[740574.14,4555222.85],[740586.67,4555238.58],[740595.11,4555250.82],[740604.14,4555259.56],[740618.71,4555270.34],[740630.95,4555277.33],[740638.52,4555281.41],[740649.59,4555285.19],[740658.04,4555290.15],[740665.32,4555294.81],[740672.9,4555298.01],[740681.63,4555308.21],[740690.67,4555317.24],[740698.53,4555323.94],[740705.81,4555327.14],[740716.59,4555332.68],[740730.87,4555339.09],[740743.1,4555344.04],[740755.05,4555353.94],[740762.62,4555358.02],[740773.4,4555359.77],[740781.56,4555361.23],[740789.13,4555363.85],[740797.0,4555369.09],[740810.69,4555382.78],[740821.18,4555390.94],[740840.4,4555402.01],[740849.72,4555406.09],[740861.38,4555408.42],[740870.41,4555412.21],[740883.52,4555412.79],[740896.63,4555411.62],[740909.74,4555407.55],[740919.06,4555402.59],[740929.25,4555398.22],[740935.95,4555393.85],[740947.9,4555388.61],[740963.34,4555381.91],[740976.16,4555376.08],[740983.73,4555371.42],[740999.46,4555360.64],[741025.1,4555348.41],[741033.25,4555344.04],[741042.28,4555332.09],[741049.57,4555321.61],[741053.35,4555311.41],[741066.46,4555300.34],[741072.87,4555295.1],[741090.35,4555291.6],[741102.59,4555291.89],[741117.44,4555288.11],[741136.67,4555280.82],[741145.41,4555275.0],[741153.28,4555267.71],[741168.72,4555256.94],[741178.91,4555244.12],[741190.57,4555233.92],[741196.39,4555225.18],[741204.26,4555216.44],[741213.87,4555211.2],[741227.85,4555203.33],[741240.67,4555196.34],[741252.91,4555187.6],[741269.51,4555177.11],[741277.09,4555164.88],[741286.99,4555153.23],[741297.19,4555142.45],[741309.13,4555133.13],[741317.0,4555124.97],[741331.85,4555112.15],[741348.46,4555103.99],[741367.39,4555097.29],[741395.36,4555087.39],[741414.0,4555082.73],[741433.81,4555078.36],[741454.5,4555074.57],[741461.2,4555073.99],[741495.46,4555070.73],[741530.38,4555076.02],[741548.37,4555076.02],[741551.55,4555064.38],[741520.86,4555047.45],[741467.94,4555036.87],[741437.25,4555024.17],[741393.86,4555034.75],[741384.87,4555041.94],[741357.49,4555060.3],[741334.18,4555075.15],[741313.79,4555089.43],[741298.35,4555103.99],[741275.34,4555122.35],[741251.45,4555138.95],[741241.25,4555155.27],[741229.02,4555172.74],[741214.16,4555188.18],[741197.56,4555202.46],[741181.24,4555215.86],[741165.51,4555224.6],[741156.48,4555231.01],[741143.37,4555240.91],[741124.44,4555250.23],[741102.3,4555249.94],[741081.32,4555247.9],[741066.76,4555246.74],[741058.89,4555251.98],[741046.95,4555259.56],[741039.66,4555272.67],[741032.38,4555287.52],[741028.59,4555298.01],[741021.89,4555310.54],[741011.41,4555323.65],[740998.59,4555336.46],[740985.77,4555346.95],[740968.0,4555356.86],[740951.69,4555364.43],[740934.21,4555367.34],[740920.22,4555375.79],[740897.21,4555385.41],[740883.81,4555384.53],[740858.46,4555375.79],[740842.73,4555363.85],[740823.51,4555351.03],[740808.65,4555341.13],[740791.46,4555328.02],[740769.9,4555320.15],[740749.8,4555317.53],[740728.83,4555313.16],[740718.63,4555305.88],[740708.44,4555293.35],[740695.04,4555282.86],[740677.27,4555270.04],[740658.62,4555262.18],[740642.89,4555251.4],[740630.65,4555237.13],[740616.67,4555222.27],[740603.56,4555210.91],[740583.17,4555195.47],[740561.61,4555177.99],[740544.13,4555159.93],[740524.62,4555143.32],[740505.68,4555127.3],[740490.82,4555115.65],[740475.67,4555105.74],[740464.31,4555101.66],[740454.41,4555101.95],[740443.47,4555104.41],[740436.72,4555109.17],[740428.86,4555111.14],[740424.99,4555112.11],[740417.67,4555113.94],[740401.4,4555119.89],[740384.34,4555122.67],[740370.45,4555127.03],[740352.98,4555130.61],[740340.68,4555108.78],[740327.19,4555078.61],[740326.43,4555075.88],[740324.98,4555070.67],[740317.26,4555042.9],[740313.3,4555019.08],[740318.85,4554996.86],[740330.76,4554985.35],[740347.43,4554976.62],[740368.46,4554971.06],[740389.89,4554954.79],[740402.59,4554946.06],[740425.61,4554947.25],[740428.09,4554947.78],[740438.99,4554938.48],[740445.76,4554932.19],[740457.6,4554925.18],[740464.61,4554920.11],[740474.76,4554909.23],[740480.8,4554903.91],[740490.29,4554899.84],[740495.9,4554891.58],[740497.45,4554889.3],[740512.92,4554882.95],[740530.39,4554891.69],[740545.07,4554909.15],[740554.2,4554929.79],[740565.31,4554946.85],[740575.63,4554966.7],[740580.39,4554991.3],[740588.36,4555003.98],[740596.58,4555015.82],[740602.14,4555027.18],[740606.97,4555036.12],[740613.5,4555040.23],[740616.88,4555041.2],[740620.02,4555037.09],[740624.13,4555030.81],[740626.83,4555027.81],[740625.56,4555025.76],[740612.14,4555004.0],[740612.14,4554988.52],[740613.73,4554975.82],[740619.29,4554965.11],[740620.08,4554948.04],[740619.29,4554932.17],[740609.37,4554910.74],[740603.41,4554898.04],[740593.49,4554886.53],[740598.25,4554875.81],[740622.86,4554864.7],[740639.13,4554860.33],[740660.56,4554857.55],[740663.59,4554859.97],[740678.02,4554871.45],[740689.14,4554874.62],[740706.6,4554878.19],[740720.89,4554884.94],[740731.21,4554903.2],[740736.76,4554919.47],[740742.32,4554934.15],[740742.71,4554936.3],[740754.17,4554940.65],[740761.66,4554945.24],[740767.95,4554956.12],[740774.72,4554960.71],[740779.79,4554961.2],[740782.21,4554956.6],[740778.58,4554943.31],[740773.75,4554933.4],[740766.5,4554921.31],[740761.91,4554913.1],[740758.76,4554905.6],[740755.86,4554899.56],[740752.24,4554890.86],[740749.58,4554885.54],[740742.57,4554874.42],[740738.75,4554869.06],[740735.1,4554866.33],[740733.71,4554865.29],[740730.81,4554863.11],[740707.39,4554866.29],[740693.5,4554855.17],[740692.71,4554843.27],[740701.04,4554834.54],[740710.57,4554831.36],[740720.49,4554831.76],[740730.81,4554835.33],[740740.33,4554841.68],[740745.49,4554844.06],[740750.65,4554854.78],[740759.97,4554854.12],[740766.01,4554852.19],[740770.1,4554848.43],[740769.7,4554843.72],[740768.51,4554829.77],[740769.7,4554813.5],[740793.91,4554801.6],[740808.31,4554794.66],[740822.33,4554778.23],[740843.03,4554775.13],[740858.89,4554772.19],[740877.09,4554764.56],[740896.7,4554757.94],[740901.46,4554754.54],[740918.93,4554742.06],[740924.48,4554745.64],[740928.45,4554761.91],[740946.96,4554772.78],[740963.98,4554788.05],[740993.34,4554801.55],[741020.94,4554810.95],[741037.38,4554819.17],[741059.1,4554822.1],[741081.41,4554822.1],[741094.92,4554821.51],[741109.6,4554818.58],[741129.56,4554813.88],[741139.54,4554807.42],[741160.68,4554795.68],[741175.36,4554790.4],[741199.43,4554788.05],[741204.71,4554786.87],[741216.46,4554785.7],[741228.2,4554783.35],[741251.1,4554771.61],[741239.35,4554766.91],[741224.09,4554765.15],[741197.08,4554765.15],[741171.25,4554768.08],[741157.74,4554775.72],[741141.3,4554783.94],[741108.42,4554793.92],[741086.7,4554799.2],[741057.93,4554800.96],[741031.51,4554793.92],[741005.08,4554781.59],[740989.82,4554768.08],[740974.55,4554763.97],[740961.64,4554753.41],[740948.72,4554744.01],[740935.8,4554732.27],[740927.58,4554722.87],[740919.36,4554715.83],[740917.6,4554704.09],[740924.65,4554698.21],[740931.69,4554686.47],[740941.09,4554678.84],[740954.0,4554669.44],[740962.81,4554660.05],[740968.68,4554652.42],[740979.25,4554643.61],[740991.58,4554629.52],[740993.93,4554622.47],[740994.52,4554606.03],[740993.34,4554592.53],[740989.23,4554574.33],[740987.98,4554551.17],[740986.25,4554545.74],[740981.63,4554531.32],[740981.63,4554516.64],[740982.03,4554505.13],[740986.79,4554497.99],[741001.08,4554487.67],[741020.53,4554473.78],[741040.77,4554467.43],[741057.84,4554466.63],[741067.32,4554461.6],[741094.92,4554459.25],[741109.01,4554453.96],[741128.11,4554475.63],[741152.45,4554487.27],[741192.67,4554492.57],[741224.24,4554502.64],[741250.87,4554498.92],[741263.57,4554496.8],[741288.97,4554493.62],[741322.84,4554493.62],[741334.48,4554498.92],[741358.82,4554510.56],[741387.4,4554508.44],[741421.27,4554509.5],[741435.02,4554519.02],[741455.13,4554543.37],[741473.12,4554546.54],[741503.82,4554560.3],[741538.74,4554580.41],[741587.42,4554597.34],[741620.23,4554605.81],[741663.62,4554616.39],[741665.74,4554635.44],[741672.09,4554659.78],[741685.85,4554676.72],[741697.49,4554666.13],[741693.26,4554647.08],[741697.49,4554622.74],[741729.24,4554625.92],[741785.33,4554619.57],[741856.24,4554598.4],[741892.23,4554584.64],[741930.33,4554573.0],[741934.56,4554556.07],[741900.69,4554535.96],[741865.77,4554548.66],[741823.43,4554578.29],[741798.03,4554585.7],[741748.29,4554579.35],[741713.37,4554578.29],[741648.81,4554568.77],[741612.82,4554566.65],[741575.78,4554564.53],[741541.92,4554542.31],[741521.81,4554525.37],[741492.17,4554511.62],[741463.6,4554496.8],[741442.43,4554483.04],[741402.22,4554473.51],[741369.41,4554468.22],[741320.72,4554465.05],[741295.32,4554465.05],[741260.4,4554468.22],[741225.95,4554467.49],[741207.48,4554459.76],[741164.09,4554446.0],[741136.6,4554422.84],[741144.82,4554407.58],[741145.41,4554396.42],[741152.46,4554382.92],[741158.92,4554362.96],[741163.61,4554345.93],[741168.31,4554301.31],[741169.48,4554281.93],[741170.66,4554257.27],[741174.77,4554242.0],[741185.34,4554220.87],[741205.89,4554202.08],[741227.02,4554184.46],[741241.12,4554166.26],[741248.75,4554151.58],[741259.9,4554136.32],[741265.19,4554112.83],[741269.3,4554093.46],[741270.47,4554068.21],[741272.23,4554051.18],[741278.69,4554033.57],[741276.34,4554009.5],[741279.1,4553987.84],[741283.32,4553969.78],[741289.94,4553960.14],[741304.4,4553943.4],[741327.28,4553929.56],[741353.17,4553917.51],[741380.27,4553900.65],[741391.71,4553886.8],[741404.35,4553867.53],[741417.6,4553839.83],[741420.01,4553819.96],[741427.24,4553786.84],[741436.87,4553760.95],[741436.87,4553734.46],[741434.46,4553699.53],[741430.25,4553662.8],[741426.63,4553632.09],[741421.82,4553606.8],[741413.39,4553588.73],[741403.75,4553567.66],[741397.73,4553545.38],[741385.69,4553511.66],[741376.65,4553486.37],[741373.04,4553468.9],[741364.61,4553448.43],[741353.17,4553426.75],[741336.31,4553426.15],[741323.66,4553436.39],[741322.46,4553458.67],[741325.47,4553482.75],[741326.67,4553496.84],[741328.48,4553510.09],[741344.14,4553532.97],[741359.19,4553552.84],[741368.83,4553576.93],[741368.83,4553598.01],[741373.04,4553615.83],[741377.26,4553645.94],[741382.68,4553667.62],[741386.89,4553703.14],[741386.29,4553721.81],[741380.27,4553755.53],[741377.86,4553772.99],[741372.44,4553807.32],[741358.59,4553827.19],[741338.72,4553853.08],[741323.06,4553873.55],[741311.02,4553884.39],[741300.78,4553883.19],[741294.76,4553875.36],[741298.37,4553851.27],[741297.77,4553826.59],[741297.77,4553801.9],[741294.76,4553783.83],[741292.95,4553765.17],[741276.7,4553736.86],[741272.48,4553726.63],[741258.03,4553699.53],[741243.58,4553678.09],[741234.54,4553671.47],[741226.11,4553655.21],[741206.24,4553625.71],[741193.6,4553602.82],[741185.17,4553584.76],[741164.09,4553545.62],[741150.24,4553524.54],[741141.21,4553496.84],[741134.59,4553474.56],[741125.55,4553457.1],[741119.53,4553457.7],[741111.1,4553470.95],[741102.07,4553485.4],[741099.06,4553490.22],[741102.67,4553505.27],[741104.48,4553516.72],[741111.7,4553539.6],[741119.53,4553558.26],[741130.97,4553572.72],[741148.44,4553591.99],[741158.67,4553609.45],[741174.33,4553635.34],[741193.0,4553660.63],[741208.05,4553681.1],[741220.69,4553699.17],[741226.11,4553710.61],[741231.53,4553731.69],[741232.14,4553746.14],[741224.91,4553759.39],[741220.69,4553766.61],[741210.46,4553772.63],[741202.03,4553777.45],[741189.38,4553773.23],[741169.51,4553742.52],[741157.47,4553716.03],[741140.01,4553689.53],[741126.76,4553663.64],[741114.72,4553635.34],[741097.25,4553605.23],[741079.19,4553579.34],[741065.34,4553558.87],[741048.48,4553539.0],[741035.23,4553522.74],[741024.39,4553516.72],[741018.97,4553519.73],[741029.81,4553529.96],[741041.85,4553542.01],[741050.89,4553551.04],[741062.33,4553569.71],[741071.96,4553592.59],[741076.78,4553604.63],[741087.62,4553625.1],[741099.06,4553647.38],[741107.49,4553667.25],[741120.13,4553699.77],[741129.77,4553728.07],[741144.22,4553751.56],[741155.66,4553772.03],[741172.52,4553797.92],[741196.01,4553820.2],[741214.07,4553853.32],[741224.91,4553873.19],[741233.34,4553902.7],[741235.83,4553930.82],[741233.48,4553951.37],[741234.07,4553970.16],[741235.24,4553994.23],[741238.18,4554018.3],[741239.94,4554035.92],[741239.35,4554050.6],[741239.35,4554057.64],[741234.66,4554071.73],[741223.5,4554098.15],[741212.93,4554112.25],[741199.43,4554125.75],[741188.86,4554135.14],[741174.77,4554148.06],[741170.07,4554162.74],[741162.44,4554185.64],[741151.28,4554208.54],[741140.13,4554230.26],[741133.67,4554244.35],[741121.93,4554274.88],[741118.4,4554294.26],[741117.23,4554315.98],[741113.71,4554339.47],[741106.07,4554365.3],[741095.5,4554387.62],[741074.95,4554402.88],[741063.21,4554413.45],[741032.68,4554424.61],[741015.65,4554432.24],[740992.17,4554448.09],[740973.97,4554463.36],[740958.11,4554479.8],[740953.42,4554505.04],[740949.89,4554526.18],[740948.13,4554547.91],[740949.31,4554579.02],[740947.54,4554602.51],[740931.69,4554632.45],[740914.08,4554657.11],[740894.11,4554684.12],[740878.26,4554702.32],[740858.89,4554729.92],[740843.03,4554739.31],[740817.98,4554744.15],[740784.63,4554748.25],[740757.8,4554757.92],[740747.94,4554744.91],[740742.37,4554735.28],[740736.8,4554715.53],[740731.23,4554685.64],[740732.24,4554664.36],[740737.31,4554628.4],[740726.67,4554604.59],[740716.54,4554583.31],[740707.42,4554561.02],[740695.26,4554521.01],[740689.69,4554512.39],[740677.53,4554498.21],[740664.36,4554481.49],[740647.14,4554461.23],[740628.39,4554444.01],[740613.7,4554425.77],[740600.53,4554404.5],[740584.83,4554387.27],[740570.14,4554363.97],[740555.96,4554345.23],[740545.82,4554323.95],[740528.09,4554299.64],[740510.36,4554266.2],[740503.78,4554243.41],[740496.18,4554212.0],[740490.61,4554183.64],[740491.12,4554165.4],[740497.7,4554135.51],[740500.74,4554119.81],[740500.23,4554089.41],[740495.17,4554045.85],[740488.58,4554022.55],[740482.0,4554000.26],[740470.35,4553968.85],[740460.21,4553956.69],[740451.1,4553949.6],[740438.43,4553955.18],[740433.37,4553966.32],[740434.38,4553978.48],[740441.47,4553994.69],[740452.11,4554010.9],[740459.71,4554024.57],[740464.27,4554039.77],[740467.81,4554058.01],[740469.84,4554072.19],[740469.33,4554091.44],[740460.72,4554111.2],[740456.67,4554120.31],[740455.15,4554133.49],[740454.14,4554147.67],[740452.11,4554169.45],[740447.04,4554175.53],[740440.46,4554175.02],[740424.25,4554166.41],[740404.49,4554157.29],[740390.31,4554145.14],[740380.18,4554135.01],[740372.07,4554132.47],[740361.44,4554141.08],[740374.61,4554156.28],[740403.48,4554177.56],[740415.64,4554185.15],[740423.74,4554195.79],[740434.38,4554210.48],[740447.04,4554234.8],[740459.2,4554254.05],[740472.88,4554273.3],[740485.54,4554294.57],[740494.66,4554318.89],[740491.12,4554328.51],[740479.97,4554330.03],[740459.2,4554323.95],[740432.35,4554317.37],[740413.1,4554310.28],[740390.31,4554298.63],[740377.14,4554296.09],[740372.58,4554303.18],[740391.32,4554318.89],[740426.78,4554333.07],[740465.28,4554351.31],[740491.62,4554373.6],[740526.57,4554388.79],[740549.37,4554406.52],[740564.57,4554427.29],[740581.28,4554451.1],[740592.93,4554470.86],[740606.11,4554495.17],[740617.76,4554513.41],[740632.45,4554534.18],[740641.06,4554546.84],[740655.24,4554576.73],[740661.32,4554595.47],[740669.43,4554616.24],[740677.53,4554644.1],[740685.64,4554662.34],[740691.21,4554675.51],[740696.78,4554694.76],[740713.5,4554714.51],[740719.58,4554734.78],[740731.23,4554755.04],[740737.73,4554772.67],[740732.18,4554784.03],[740715.74,4554796.59],[740695.92,4554811.34],[740685.28,4554818.59],[740670.78,4554826.08],[740652.17,4554835.75],[740635.74,4554842.28],[740619.3,4554844.45],[740607.7,4554843.24],[740593.68,4554843.73],[740575.79,4554847.84],[740557.18,4554852.91],[740541.71,4554857.99],[740525.76,4554858.71],[740506.42,4554864.51],[740492.41,4554871.52],[740481.29,4554877.08],[740464.37,4554887.72],[740452.04,4554898.35],[740436.09,4554912.61],[740420.38,4554921.31],[740403.94,4554922.52],[740394.27,4554920.59],[740383.16,4554924.94],[740373.0,4554935.33],[740352.7,4554949.84],[740335.06,4554952.98],[740327.56,4554944.28],[740322.73,4554932.43],[740322.0,4554924.7],[740320.07,4554914.3],[740320.31,4554902.7],[740322.0,4554892.79],[740322.49,4554880.95],[740321.76,4554868.62],[740320.31,4554856.3],[740320.31,4554846.87],[740319.83,4554837.2],[740321.28,4554828.5],[740321.52,4554817.62],[740321.76,4554811.1],[740322.0,4554805.05],[740319.35,4554792.24],[740317.17,4554785.72],[740309.92,4554773.87],[740306.29,4554771.94],[740307.31,4554756.54],[740296.28,4554732.48],[740294.27,4554692.36],[740287.25,4554664.28],[740280.23,4554635.2],[740281.23,4554606.12],[740269.2,4554577.04],[740265.19,4554559.99],[740260.17,4554547.95],[740235.1,4554537.93],[740225.07,4554542.94],[740229.09,4554573.03],[740238.11,4554608.12],[740243.12,4554637.21],[740242.12,4554665.29],[740242.12,4554702.39],[740244.13,4554726.46],[740270.2,4554751.53],[740289.62,4554787.65],[740287.2,4554804.09],[740284.54,4554821.49],[740283.09,4554843.49],[740288.65,4554852.43],[740295.9,4554857.99],[740298.32,4554866.45],[740300.49,4554878.05],[740300.01,4554889.89],[740298.56,4554899.8],[740294.21,4554908.5],[740291.07,4554914.3],[740295.42,4554926.39],[740299.04,4554938.48],[740302.18,4554952.49],[740300.73,4554968.2],[740293.24,4554985.37],[740290.34,4555007.36],[740287.92,4555022.1],[740290.58,4555035.88],[740290.1,4555053.53],[740291.79,4555065.61],[740292.76,4555082.77],[740294.69,4555098.72],[740303.15,4555112.5],[740308.23,4555123.86],[740316.44,4555134.5],[740319.59,4555151.17],[740321.76,4555162.78],[740322.49,4555174.38],[740321.28,4555187.91],[740315.72,4555198.31],[740305.81,4555212.57],[740295.9,4555224.17],[740287.44,4555230.45],[740277.77,4555240.12],[740268.1,4555245.44],[740260.13,4555249.31],[740254.86,4555251.77],[740253.66,4555254.41],[740251.23,4555259.75],[740250.75,4555269.9],[740246.64,4555274.98],[740242.53,4555279.33],[740237.94,4555282.47],[740234.31,4555284.4],[740227.01,4555287.25],[740220.25,4555292.33],[740209.13,4555298.37],[740202.84,4555302.0],[740198.43,4555303.8],[740178.94,4555313.11],[740168.75,4555315.77],[740155.9,4555317.98],[740135.07,4555318.87],[740122.23,4555316.21],[740105.39,4555311.78],[740089.88,4555307.35],[740075.26,4555306.02],[740061.53,4555306.02],[740051.78,4555304.69],[740042.92,4555297.16],[740041.15,4555279.88],[740040.71,4555246.65],[740037.61,4555222.28],[740030.52,4555205.89],[740022.54,4555181.52],[740015.01,4555164.6],[740010.14,4555150.87],[740011.02,4555124.73],[740012.35,4555099.47],[740017.23,4555075.11],[740023.87,4555051.18],[740035.83,4555032.57],[740049.57,4555013.52],[740053.55,4554996.69],[740057.1,4554980.74],[740059.31,4554959.03],[740061.97,4554945.29],[740070.83,4554921.81],[740077.48,4554900.1],[740087.23,4554881.5],[740103.18,4554871.31],[740123.11,4554860.67],[740135.96,4554833.21],[740139.95,4554816.37],[740139.06,4554791.56],[740133.75,4554768.96],[740127.1,4554737.51],[740121.78,4554702.07],[740103.18,4554676.37],[740091.66,4554661.31],[740084.12,4554637.65],[740071.72,4554605.31],[740063.74,4554572.96],[740056.21,4554546.38],[740045.14,4554543.28],[740036.28,4554549.93],[740033.17,4554576.95],[740035.39,4554585.81],[740039.82,4554603.53],[740045.14,4554625.69],[740049.57,4554642.08],[740050.9,4554658.03],[740054.88,4554678.85],[740066.4,4554700.12],[740077.48,4554714.29],[740089.88,4554736.45],[740100.96,4554763.47],[740102.73,4554785.27],[740105.39,4554807.86],[740103.62,4554826.91],[740095.2,4554841.09],[740083.24,4554858.81],[740069.06,4554872.99],[740062.42,4554883.62],[740057.1,4554900.02],[740056.66,4554909.5],[740042.92,4554934.31],[740037.16,4554947.6],[740025.64,4554964.43],[740015.01,4554988.36],[740006.15,4554999.88],[740000.83,4555018.04],[740006.15,4555030.89],[740012.35,4555043.3],[739999.5,4555061.46],[739999.06,4555078.74],[739999.06,4555099.56],[739998.62,4555115.51],[739999.95,4555143.87],[740000.39,4555162.47],[740003.05,4555181.97],[740010.14,4555202.35],[740020.77,4555217.41],[740022.54,4555231.59],[740020.77,4555246.56],[740022.98,4555262.96],[740027.42,4555280.68],[740027.42,4555306.82],[740022.1,4555319.66],[740004.82,4555330.3],[739991.09,4555340.04],[739983.11,4555345.36],[739971.15,4555348.02],[739956.09,4555355.11],[739941.02,4555367.51],[739934.82,4555375.49],[739918.43,4555385.68],[739904.69,4555385.23],[739894.06,4555383.02],[739881.21,4555384.35],[739869.69,4555393.65],[739861.27,4555404.73],[739842.22,4555415.8],[739828.49,4555414.92],[739814.31,4555410.93],[739800.14,4555407.39],[739791.27,4555407.39],[739785.07,4555414.48],[739781.53,4555429.54],[739771.78,4555447.7],[739764.25,4555456.12],[739757.6,4555458.78],[739746.08,4555455.24],[739736.78,4555448.15],[739730.58,4555433.97],[739727.03,4555414.92],[739719.5,4555406.5],[739714.63,4555410.04],[739714.4,4555426.35],[739715.8,4555446.0],[739715.8,4555459.33],[739710.19,4555470.56],[739696.16,4555481.08],[739675.62,4555481.08],[739670.9,4555481.08],[739643.54,4555476.17],[739632.31,4555456.52],[739625.29,4555447.4],[739612.67,4555443.89],[739595.13,4555441.09],[739567.76,4555441.09],[739561.45,4555438.98],[739557.94,4555422.85],[739560.75,4555406.71],[739562.85,4555382.15],[739557.24,4555364.61],[739556.54,4555344.97],[739567.33,4555336.87],[739573.38,4555332.34],[739570.3,4555324.1],[739568.12,4555316.46],[739564.84,4555309.91],[739555.02,4555310.46],[739545.74,4555314.82],[739540.28,4555326.28],[739538.65,4555342.65],[739541.38,4555355.2],[739543.01,4555370.48],[739544.1,4555387.4],[739543.56,4555408.14],[739541.92,4555420.69],[739549.56,4555435.42],[739549.56,4555443.06],[739541.85,4555450.29],[739540.83,4555451.25],[739534.28,4555457.8],[739534.28,4555462.18],[739534.28,4555464.89],[739525.55,4555463.25],[739513.0,4555477.44],[739509.73,4555492.72],[739510.27,4555507.46],[739510.27,4555527.65],[739508.09,4555547.84],[739502.63,4555565.85],[739499.9,4555582.22],[739498.27,4555607.32],[739495.54,4555628.6],[739493.35,4555650.98],[739499.36,4555667.35],[739504.27,4555681.54],[739503.72,4555697.36],[739499.36,4555715.92],[739489.53,4555733.38],[739484.09,4555739.78],[739480.26,4555744.29],[739469.34,4555761.21],[739462.25,4555777.58],[739456.79,4555801.05],[739449.15,4555825.06],[739436.6,4555845.25],[739415.86,4555865.98],[739397.31,4555875.26],[739374.45,4555891.25],[739374.05,4555891.6],[739350.44,4555912.7],[739343.65,4555918.87],[739330.95,4555940.57],[739317.19,4555956.44],[739311.37,4555975.49],[739293.44,4556005.95],[739305.0,4556042.3],[739335.3,4556077.71],[739338.46,4556080.76],[739349.93,4556091.79],[739372.84,4556117.68],[739395.27,4556148.76],[739408.62,4556170.12],[739418.62,4556175.12],[739418.62,4556173.86],[739424.04,4556179.68],[739431.61,4556179.29],[739448.84,4556178.39],[739460.69,4556177.77]]]},"properties":{"SoilType":"Alluvium","SoilCode":1,"SOILthick":1.5,"ibound_l1":1,"ibound_l2":1,"iuzfbnd":1}},{"type":"Feature","geometry":{"type":"Polygon","coordinates":[[[739493.35,4555650.98],[739484.62,4555675.53],[739482.99,4555696.27],[739480.8,4555719.19],[739484.09,4555739.78],[739489.53,4555733.38],[739499.36,4555715.92],[739503.72,4555697.36],[739504.27,4555681.54],[739499.36,4555667.35],[739493.35,4555650.98]]]},"properties":{"SoilType":"Outcrop","SoilCode":3,"SOILthick":0.05,"ibound_l1":0,"ibound_l2":1,"iuzfbnd":2}},{"type":"Feature","geometry":{"type":"Polygon","coordinates":[[[739614.5,4555656.43],[739609.04,4555662.44],[739610.14,4555677.72],[739631.78,4555679.41],[739644.18,4555691.38],[739669.0,4555709.54],[739680.96,4555717.52],[739694.69,4555720.17],[739696.91,4555707.33],[739685.83,4555686.95],[739667.67,4555673.21],[739643.74,4555663.91],[739630.01,4555661.69],[739614.5,4555656.43]]]},"properties":{"SoilType":"Alluvium","SoilCode":1,"SOILthick":1.5,"ibound_l1":1,"ibound_l2":1,"iuzfbnd":1}},{"type":"Feature","geometry":{"type":"Polygon","coordinates":[[[739549.56,4555435.42],[739540.83,4555432.15],[739534.28,4555434.88],[739524.46,4555448.52],[739525.55,4555463.25],[739534.28,4555464.89],[739534.28,4555462.18],[739534.28,4555457.8],[739540.83,4555451.25],[739541.85,4555450.29],[739549.56,4555443.06],[739549.56,4555435.42]]]},"properties":{"SoilType":"Outcrop","SoilCode":3,"SOILthick":0.05,"ibound_l1":0,"ibound_l2":1,"iuzfbnd":2}},{"type":"Feature","geometry":{"type":"Polygon","coordinates":[[[740279.46,4555318.43],[740271.25,4555312.15],[740263.03,4555307.56],[740256.74,4555305.14],[740250.46,4555300.06],[740242.48,4555298.13],[740232.33,4555302.24],[740221.21,4555307.07],[740209.61,4555311.67],[740200.2,4555317.54],[740183.81,4555329.5],[740164.31,4555337.47],[740151.91,4555333.93],[740147.07,4555334.83],[740148.75,4555336.94],[740155.03,4555344.83],[740161.8,4555355.22],[740165.43,4555359.33],[740171.23,4555370.21],[740174.05,4555375.85],[740180.85,4555372.33],[740187.62,4555371.37],[740200.67,4555369.19],[740214.45,4555362.67],[740226.53,4555357.11],[740238.62,4555352.51],[740249.73,4555350.82],[740259.16,4555352.27],[740271.25,4555350.34],[740278.01,4555349.37],[740280.43,4555343.81],[740282.61,4555335.59],[740282.85,4555327.14],[740279.46,4555318.43]]]},"properties":{"SoilType":"Outcrop","SoilCode":3,"SOILthick":0.05,"ibound_l1":0,"ibound_l2":1,"iuzfbnd":2}},{"type":"Feature","geometry":{"type":"Polygon","coordinates":[[[739608.73,4556164.94],[739688.05,4556160.03],[739742.66,4556100.8],[739744.93,4556072.5],[739737.96,4556060.01],[739756.91,4556051.56],[739780.37,4556033.19],[739801.22,4556044.82],[739828.94,4556034.64],[739851.84,4556061.22],[739873.52,4556073.32],[739902.17,4556069.87],[739899.64,4556058.24],[739893.44,4556039.03],[739889.11,4556027.88],[739877.96,4556013.02],[739868.11,4556009.51],[739856.28,4556007.44],[739836.45,4556013.64],[739820.35,4556025.41],[739811.68,4556016.73],[739811.68,4555993.81],[739788.76,4555985.76],[739801.76,4555998.77],[739794.95,4556006.82],[739775.75,4556007.44],[739763.36,4556014.88],[739735.48,4556027.88],[739705.75,4556041.51],[739671.06,4556054.52],[739643.81,4556065.05],[739620.89,4556065.67],[739625.22,4556048.94],[739610.63,4556063.09],[739598.68,4556072.72],[739583.65,4556083.9],[739564.38,4556094.7],[739543.18,4556107.03],[739522.63,4556124.12],[739515.75,4556129.95],[739513.13,4556134.18],[739512.24,4556135.48],[739502.29,4556152.03],[739492.13,4556163.43],[739517.68,4556157.51],[739608.73,4556164.94]]]},"properties":{"SoilType":"Regolith","SoilCode":2,"SOILthick":0.75,"ibound_l1":1,"ibound_l2":1,"iuzfbnd":1}},{"type":"Feature","geometry":{"type":"Polygon","coordinates":[[[739447.9,4555965.97],[739436.91,4555974.37],[739429.5,4555985.48],[739430.56,4555998.18],[739433.73,4556011.94],[739437.43,4556032.58],[739441.67,4556048.45],[739452.78,4556075.44],[739463.89,4556089.2],[739473.95,4556097.67],[739487.22,4556104.39],[739498.82,4556104.02],[739508.17,4556101.93],[739514.66,4556100.48],[739525.45,4556088.53],[739536.24,4556077.35],[739550.89,4556064.63],[739563.99,4556058.08],[739575.56,4556051.53],[739583.27,4556045.74],[739595.99,4556033.02],[739607.55,4556020.3],[739621.81,4556011.82],[739635.69,4555995.25],[739643.4,4555986.38],[739648.41,4555981.37],[739660.35,4555970.97],[739668.45,4555963.64],[739680.4,4555960.56],[739698.51,4555952.08],[739708.15,4555949.77],[739724.34,4555947.07],[739755.95,4555943.6],[739774.06,4555943.21],[739787.55,4555943.99],[739799.5,4555941.67],[739813.38,4555935.51],[739827.25,4555923.17],[739841.13,4555911.61],[739848.45,4555900.04],[739861.94,4555894.26],[739879.29,4555893.49],[739895.09,4555893.11],[739908.2,4555889.64],[739922.46,4555881.93],[739932.48,4555873.06],[739937.11,4555868.05],[739944.43,4555858.03],[739953.29,4555854.18],[739960.62,4555863.81],[739961.39,4555878.07],[739957.15,4555888.87],[739947.9,4555898.89],[739932.87,4555906.98],[739900.49,4555923.17],[739880.83,4555929.72],[739858.09,4555935.12],[739841.9,4555942.44],[739839.97,4555954.01],[739843.44,4555959.02],[739851.54,4555963.64],[739865.41,4555967.88],[739892.39,4555973.66],[739902.42,4555976.36],[739915.91,4555980.99],[739927.08,4555982.92],[739939.8,4555986.0],[739950.21,4555987.54],[739971.41,4555988.31],[739986.44,4555987.54],[740004.17,4555991.4],[740019.98,4556000.26],[740033.47,4556010.28],[740048.11,4556019.15],[740065.46,4556027.63],[740080.11,4556035.34],[740093.6,4556040.73],[740098.99,4556043.82],[740109.02,4556048.83],[740123.28,4556051.14],[740144.48,4556052.68],[740160.67,4556059.62],[740173.0,4556064.63],[740185.33,4556068.1],[740208.85,4556068.1],[740226.96,4556068.1],[740243.92,4556065.79],[740258.95,4556063.09],[740276.69,4556062.32],[740285.94,4556057.31],[740317.54,4556047.67],[740332.96,4556044.97],[740337.97,4556051.53],[740334.5,4556060.78],[740325.25,4556073.11],[740314.84,4556083.52],[740298.66,4556095.85],[740283.24,4556107.8],[740268.59,4556114.35],[740246.62,4556122.45],[740227.73,4556125.15],[740208.46,4556128.61],[740183.02,4556127.46],[740168.76,4556119.75],[740154.88,4556108.19],[740134.46,4556099.32],[740111.71,4556087.76],[740095.14,4556079.66],[740083.58,4556072.72],[740072.01,4556066.94],[740063.53,4556061.16],[740056.21,4556055.38],[740046.19,4556049.21],[740032.7,4556042.66],[740018.82,4556035.34],[740008.41,4556029.17],[739991.93,4556021.69],[739995.65,4556033.46],[739978.31,4556032.84],[739969.01,4556046.47],[739963.95,4556064.85],[739953.23,4556063.76],[739953.09,4556063.77],[740013.5,4556069.94],[740039.93,4556091.8],[740065.49,4556089.75],[740098.13,4556115.31],[740108.5,4556119.94],[740128.01,4556133.77],[740148.5,4556139.94],[740163.13,4556145.31],[740208.07,4556157.54],[740233.13,4556175.31],[740266.88,4556196.45],[740293.17,4556226.96],[740316.43,4556239.94],[740337.58,4556231.83],[740339.92,4556202.62],[740337.8,4556176.17],[740353.32,4556174.92],[740392.68,4556178.08],[740437.76,4556164.51],[740438.82,4556151.36],[740409.77,4556116.25],[740428.13,4556094.94],[740452.08,4556087.73],[740458.13,4556034.94],[740483.53,4556030.3],[740480.99,4555998.66],[740501.04,4555963.82],[740493.5,4555889.94],[740474.9,4555866.18],[740468.5,4555844.94],[740463.13,4555835.31],[740458.5,4555824.94],[740450.82,4555812.62],[740433.41,4555788.57],[740445.93,4555752.15],[740453.41,4555745.22],[740459.18,4555732.99],[740483.41,4555715.22],[740488.22,4555705.03],[740493.41,4555695.22],[740499.45,4555657.31],[740521.85,4555645.46],[740552.23,4555635.84],[740566.37,4555628.36],[740602.9,4555658.1],[740623.22,4555665.22],[740697.82,4555671.18],[740723.16,4555688.62],[740758.41,4555680.22],[740780.21,4555665.22],[740813.74,4555648.06],[740845.83,4555616.98],[740885.94,4555579.87],[740921.04,4555542.77],[740945.11,4555507.67],[740971.18,4555468.56],[740994.25,4555420.42],[741036.37,4555366.27],[741080.49,4555342.2],[741115.59,4555335.18],[741143.67,4555340.19],[741184.79,4555345.21],[741210.86,4555363.26],[741230.92,4555394.35],[741240.94,4555444.49],[741243.95,4555474.57],[741248.41,4555490.03],[741276.5,4555509.36],[741359.19,4555512.63],[741388.22,4555505.03],[741505.79,4555499.9],[741502.22,4555409.84],[741509.39,4555375.56],[741483.41,4555351.5],[741488.22,4555345.03],[741526.67,4555339.77],[741565.85,4555307.89],[741652.86,4555316.13],[741711.43,4555309.9],[741732.95,4555278.63],[741739.26,4555232.41],[741758.13,4555222.43],[741780.02,4555212.1],[741846.62,4555131.33],[741833.22,4555080.22],[741828.41,4555055.03],[741823.22,4555040.22],[741818.41,4555020.03],[741793.22,4554990.22],[741759.96,4554943.04],[741701.21,4554896.84],[741685.44,4554858.46],[741701.15,4554866.77],[741809.31,4554871.05],[741892.22,4554864.94],[741932.65,4554845.86],[741943.46,4554830.15],[741930.01,4554797.39],[741948.41,4554755.22],[741953.22,4554740.03],[741958.6,4554724.69],[741956.84,4554680.36],[741986.49,4554673.29],[741994.1,4554641.33],[742013.41,4554635.22],[742023.22,4554630.03],[742043.41,4554625.22],[742052.87,4554615.01],[742062.65,4554615.39],[742078.41,4554605.22],[742098.22,4554590.03],[742114.99,4554582.11],[742138.31,4554567.06],[742144.0,4554466.16],[742158.41,4554445.22],[742163.22,4554405.03],[742168.41,4554380.22],[742173.22,4554350.03],[742211.92,4554306.25],[742223.22,4554252.23],[742218.22,4554182.29],[742196.64,4554172.11],[742175.44,4554158.42],[742138.41,4554130.03],[742069.64,4554121.8],[742058.22,4554100.22],[742053.41,4554060.03],[742044.63,4554043.42],[742036.7,4553968.92],[742004.89,4553931.27],[741993.41,4553895.03],[741983.22,4553880.22],[741978.41,4553815.03],[741957.9,4553768.03],[741958.57,4553751.12],[741946.59,4553720.35],[741938.24,4553720.02],[741918.94,4553726.79],[741903.41,4553710.03],[741895.16,4553702.38],[741888.41,4553660.03],[741883.22,4553645.22],[741878.41,4553630.03],[741868.22,4553625.22],[741851.41,4553613.65],[741802.75,4553600.09],[741809.18,4553553.04],[741828.45,4553535.18],[741823.22,4553515.22],[741816.1,4553485.33],[741803.32,4553484.83],[741769.63,4553486.16],[741748.72,4553466.78],[741742.43,4553446.93],[741703.39,4553397.29],[741659.89,4553382.04],[741633.96,4553410.03],[741610.66,4553402.91],[741591.55,4553342.57],[741578.22,4553330.22],[741573.41,4553320.03],[741538.22,4553315.22],[741519.82,4553305.48],[741493.32,4553304.43],[741468.32,4553305.42],[741457.33,4553282.14],[741411.84,4553243.7],[741383.22,4553225.22],[741378.41,4553220.03],[741358.5,4553207.17],[741358.02,4553195.12],[741358.94,4553171.83],[741300.82,4553169.53],[741275.82,4553170.52],[741234.09,4553168.87],[741208.22,4553175.03],[741190.98,4553181.07],[741180.51,4553158.88],[741155.76,4553132.16],[741127.14,4553110.22],[741082.5,4553116.55],[741052.94,4553140.6],[741028.93,4553139.65],[741009.78,4553149.78],[740993.22,4553155.03],[740983.41,4553160.22],[740957.14,4553170.45],[740914.52,4553199.78],[740876.29,4553201.29],[740854.84,4553193.77],[740725.77,4553198.89],[740660.43,4553185.22],[740633.22,4553190.03],[740588.41,4553230.22],[740573.02,4553240.16],[740588.41,4553245.03],[740614.04,4553265.89],[740641.08,4553278.64],[740678.33,4553305.97],[740693.31,4553334.28],[740698.22,4553370.22],[740708.22,4553389.12],[740701.84,4553423.73],[740688.41,4553449.12],[740693.22,4553480.22],[740708.02,4553501.72],[740685.82,4553517.0],[740665.52,4553503.04],[740611.88,4553549.56],[740583.22,4553555.03],[740543.41,4553590.22],[740515.0,4553608.56],[740398.22,4553730.03],[740393.41,4553770.22],[740383.66,4553788.66],[740375.03,4553815.9],[740330.14,4553888.61],[740283.22,4553895.03],[740268.41,4553900.22],[740236.61,4553906.29],[740213.22,4553935.03],[740208.41,4553950.22],[740203.22,4553955.03],[740153.41,4554010.22],[740127.94,4554022.24],[740103.41,4554035.22],[740070.82,4554037.62],[740073.04,4554040.4],[740086.92,4554051.52],[740116.64,4554088.63],[740124.66,4554134.73],[740116.91,4554175.87],[740103.04,4554194.85],[740097.11,4554215.58],[740075.58,4554245.05],[740038.82,4554251.45],[740023.59,4554260.4],[739998.26,4554271.07],[739993.59,4554350.4],[739988.04,4554359.85],[739983.59,4554405.4],[739978.04,4554409.85],[739963.87,4554433.18],[739939.62,4554443.39],[739888.04,4554449.85],[739853.59,4554480.4],[739845.82,4554482.62],[739848.27,4554485.17],[739863.37,4554490.07],[739875.64,4554496.4],[739897.74,4554526.2],[739904.13,4554565.45],[739989.74,4554656.54],[740008.27,4554700.17],[740053.37,4554750.07],[740058.27,4554761.05],[740048.27,4554800.07],[740043.37,4554850.17],[740021.86,4554876.82],[740008.45,4554889.71],[740001.22,4554904.59],[739988.22,4554950.71],[739970.72,4554967.52],[739960.52,4554978.14],[739953.23,4555000.58],[739925.82,4555000.02],[739917.96,4555000.18],[739918.75,4555038.69],[739912.2,4555064.23],[739879.65,4555104.55],[739867.61,4555110.39],[739798.27,4555120.07],[739778.37,4555125.17],[739758.27,4555130.07],[739722.78,4555139.17],[739650.4,4555124.34],[739619.73,4555134.84],[739598.27,4555140.07],[739578.37,4555155.17],[739543.27,4555160.07],[739535.82,4555162.62],[739532.9,4555209.16],[739491.66,4555257.65],[739483.46,4555310.26],[739468.46,4555331.74],[739473.18,4555370.26],[739481.9,4555411.07],[739449.64,4555450.38],[739459.74,4555507.19],[739448.18,4555534.98],[739443.46,4555560.26],[739436.54,4555592.62],[739443.46,4555624.98],[739448.18,4555655.26],[739456.7,4555679.03],[739433.46,4555695.26],[739413.53,4555704.41],[739408.46,4555785.26],[739378.51,4555823.91],[739373.46,4555840.26],[739363.46,4555858.67],[739368.18,4555880.26],[739374.14,4555891.25],[739374.05,4555891.6],[739374.45,4555891.25],[739397.31,4555875.26],[739415.86,4555865.98],[739436.6,4555845.25],[739449.15,4555825.06],[739456.79,4555801.05],[739462.25,4555777.58],[739469.34,4555761.21],[739480.26,4555744.29],[739484.09,4555739.78],[739480.8,4555719.19],[739482.99,4555696.27],[739484.62,4555675.53],[739493.35,4555650.98],[739495.54,4555628.6],[739498.27,4555607.32],[739499.9,4555582.22],[739502.63,4555565.85],[739508.09,4555547.84],[739510.27,4555527.65],[739510.27,4555507.46],[739509.73,4555492.72],[739513.0,4555477.44],[739525.55,4555463.25],[739524.46,4555448.52],[739534.28,4555434.88],[739540.83,4555432.15],[739549.56,4555435.42],[739541.92,4555420.69],[739543.56,4555408.14],[739544.1,4555387.4],[739543.01,4555370.48],[739541.38,4555355.2],[739538.65,4555342.65],[739540.28,4555326.28],[739545.74,4555314.82],[739555.02,4555310.46],[739564.84,4555309.91],[739568.12,4555316.46],[739570.3,4555324.1],[739573.38,4555332.34],[739584.6,4555319.01],[739602.14,4555309.18],[739628.1,4555305.68],[739641.43,4555312.69],[739648.45,4555326.72],[739657.57,4555340.76],[739650.55,4555365.31],[739652.66,4555391.27],[739663.88,4555414.43],[739677.21,4555428.46],[739679.32,4555427.76],[739698.26,4555426.35],[739714.4,4555426.35],[739714.63,4555410.04],[739719.5,4555406.5],[739727.03,4555414.92],[739730.58,4555433.97],[739736.78,4555448.15],[739746.08,4555455.24],[739757.6,4555458.78],[739764.25,4555456.12],[739771.78,4555447.7],[739781.53,4555429.54],[739785.07,4555414.48],[739791.27,4555407.39],[739800.14,4555407.39],[739814.31,4555410.93],[739828.49,4555414.92],[739842.22,4555415.8],[739861.27,4555404.73],[739869.69,4555393.65],[739881.21,4555384.35],[739894.06,4555383.02],[739904.69,4555385.23],[739918.43,4555385.68],[739934.82,4555375.49],[739941.02,4555367.51],[739956.09,4555355.11],[739971.15,4555348.02],[739983.11,4555345.36],[739991.09,4555340.04],[740004.82,4555330.3],[740022.1,4555319.66],[740027.42,4555306.82],[740027.42,4555280.68],[740022.98,4555262.96],[740020.77,4555246.56],[740022.54,4555231.59],[740020.77,4555217.41],[740010.14,4555202.35],[740003.05,4555181.97],[740000.39,4555162.47],[739999.95,4555143.87],[739998.62,4555115.51],[739999.06,4555099.56],[739999.06,4555078.74],[739999.5,4555061.46],[740012.35,4555043.3],[740006.15,4555030.89],[740000.83,4555018.04],[740006.15,4554999.88],[740015.01,4554988.36],[740025.64,4554964.43],[740037.16,4554947.6],[740042.92,4554934.31],[740056.66,4554909.5],[740057.1,4554900.02],[740062.42,4554883.62],[740069.06,4554872.99],[740083.24,4554858.81],[740095.2,4554841.09],[740103.62,4554826.91],[740105.39,4554807.86],[740102.73,4554785.27],[740100.96,4554763.47],[740089.88,4554736.45],[740077.48,4554714.29],[740066.4,4554700.12],[740054.88,4554678.85],[740050.9,4554658.03],[740049.57,4554642.08],[740045.14,4554625.69],[740039.82,4554603.53],[740035.39,4554585.81],[740033.17,4554576.95],[740036.28,4554549.93],[740045.14,4554543.28],[740056.21,4554546.38],[740063.74,4554572.96],[740071.72,4554605.31],[740084.12,4554637.65],[740091.66,4554661.31],[740103.18,4554676.37],[740121.78,4554702.07],[740127.1,4554737.51],[740133.75,4554768.96],[740139.06,4554791.56],[740139.95,4554816.37],[740135.96,4554833.21],[740123.11,4554860.67],[740103.18,4554871.31],[740087.23,4554881.5],[740077.48,4554900.1],[740070.83,4554921.81],[740061.97,4554945.29],[740059.31,4554959.03],[740057.1,4554980.74],[740053.55,4554996.69],[740049.57,4555013.52],[740035.83,4555032.57],[740023.87,4555051.18],[740017.23,4555075.11],[740012.35,4555099.47],[740011.02,4555124.73],[740010.14,4555150.87],[740015.01,4555164.6],[740022.54,4555181.52],[740030.52,4555205.89],[740037.61,4555222.28],[740040.71,4555246.65],[740041.15,4555279.88],[740042.92,4555297.16],[740051.78,4555304.69],[740061.53,4555306.02],[740075.26,4555306.02],[740089.88,4555307.35],[740105.39,4555311.78],[740122.23,4555316.21],[740135.07,4555318.87],[740155.9,4555317.98],[740168.75,4555315.77],[740178.94,4555313.11],[740198.43,4555303.8],[740202.84,4555302.0],[740209.13,4555298.37],[740220.25,4555292.33],[740227.01,4555287.25],[740234.31,4555284.4],[740229.96,4555281.5],[740227.57,4555277.57],[740231.41,4555265.07],[740234.8,4555255.4],[740234.31,4555245.73],[740232.62,4555237.99],[740234.56,4555233.16],[740237.86,4555229.68],[740241.32,4555225.67],[740249.06,4555225.43],[740251.23,4555227.12],[740254.13,4555230.99],[740254.86,4555241.38],[740255.1,4555247.66],[740254.86,4555251.77],[740260.13,4555249.31],[740268.1,4555245.44],[740277.77,4555240.12],[740287.44,4555230.45],[740295.9,4555224.17],[740305.81,4555212.57],[740315.72,4555198.31],[740321.28,4555187.91],[740322.49,4555174.38],[740321.76,4555162.78],[740319.59,4555151.17],[740316.44,4555134.5],[740308.23,4555123.86],[740303.15,4555112.5],[740294.69,4555098.72],[740292.76,4555082.77],[740291.79,4555065.61],[740290.1,4555053.53],[740290.58,4555035.88],[740287.92,4555022.1],[740290.34,4555007.36],[740293.24,4554985.37],[740300.73,4554968.2],[740302.18,4554952.49],[740299.04,4554938.48],[740295.42,4554926.39],[740291.07,4554914.3],[740294.21,4554908.5],[740298.56,4554899.8],[740300.01,4554889.89],[740300.49,4554878.05],[740298.32,4554866.45],[740295.9,4554857.99],[740288.65,4554852.43],[740283.09,4554843.49],[740284.54,4554821.49],[740287.2,4554804.09],[740289.62,4554787.65],[740270.2,4554751.53],[740244.13,4554726.46],[740242.12,4554702.39],[740242.12,4554665.29],[740243.12,4554637.21],[740238.11,4554608.12],[740229.09,4554573.03],[740225.07,4554542.94],[740235.1,4554537.93],[740260.17,4554547.95],[740265.19,4554559.99],[740269.2,4554577.04],[740281.23,4554606.12],[740280.23,4554635.2],[740287.25,4554664.28],[740294.27,4554692.36],[740296.28,4554732.48],[740307.31,4554756.54],[740306.29,4554771.94],[740309.92,4554773.87],[740317.17,4554785.72],[740319.35,4554792.24],[740322.0,4554805.05],[740321.76,4554811.1],[740321.52,4554817.62],[740321.28,4554828.5],[740319.83,4554837.2],[740320.31,4554846.87],[740320.31,4554856.3],[740321.76,4554868.62],[740322.49,4554880.95],[740322.0,4554892.79],[740320.31,4554902.7],[740320.07,4554914.3],[740322.0,4554924.7],[740322.73,4554932.43],[740327.56,4554944.28],[740335.06,4554952.98],[740352.7,4554949.84],[740373.0,4554935.33],[740383.16,4554924.94],[740394.27,4554920.59],[740403.94,4554922.52],[740420.38,4554921.31],[740436.09,4554912.61],[740452.04,4554898.35],[740464.37,4554887.72],[740481.29,4554877.08],[740492.41,4554871.52],[740506.42,4554864.51],[740525.76,4554858.71],[740541.71,4554857.99],[740557.18,4554852.91],[740575.79,4554847.84],[740593.68,4554843.73],[740607.7,4554843.24],[740619.3,4554844.45],[740635.74,4554842.28],[740652.17,4554835.75],[740670.78,4554826.08],[740685.28,4554818.59],[740695.92,4554811.34],[740715.74,4554796.59],[740732.18,4554784.03],[740737.73,4554772.67],[740731.23,4554755.04],[740719.58,4554734.78],[740713.5,4554714.51],[740696.78,4554694.76],[740691.21,4554675.51],[740685.64,4554662.34],[740677.53,4554644.1],[740669.43,4554616.24],[740661.32,4554595.47],[740655.24,4554576.73],[740641.06,4554546.84],[740632.45,4554534.18],[740617.76,4554513.41],[740606.11,4554495.17],[740592.93,4554470.86],[740581.28,4554451.1],[740564.57,4554427.29],[740549.37,4554406.52],[740526.57,4554388.79],[740491.62,4554373.6],[740465.28,4554351.31],[740426.78,4554333.07],[740391.32,4554318.89],[740372.58,4554303.18],[740377.14,4554296.09],[740390.31,4554298.63],[740413.1,4554310.28],[740432.35,4554317.37],[740459.2,4554323.95],[740479.97,4554330.03],[740491.12,4554328.51],[740494.66,4554318.89],[740485.54,4554294.57],[740472.88,4554273.3],[740459.2,4554254.05],[740447.04,4554234.8],[740434.38,4554210.48],[740423.74,4554195.79],[740415.64,4554185.15],[740403.48,4554177.56],[740374.61,4554156.28],[740361.44,4554141.08],[740372.07,4554132.47],[740380.18,4554135.01],[740390.31,4554145.14],[740404.49,4554157.29],[740424.25,4554166.41],[740440.46,4554175.02],[740447.04,4554175.53],[740452.11,4554169.45],[740454.14,4554147.67],[740455.15,4554133.49],[740456.67,4554120.31],[740460.72,4554111.2],[740469.33,4554091.44],[740469.84,4554072.19],[740467.81,4554058.01],[740464.27,4554039.77],[740459.71,4554024.57],[740452.11,4554010.9],[740441.47,4553994.69],[740434.38,4553978.48],[740433.37,4553966.32],[740438.43,4553955.18],[740451.1,4553949.6],[740460.21,4553956.69],[740470.35,4553968.85],[740482.0,4554000.26],[740488.58,4554022.55],[740495.17,4554045.85],[740500.23,4554089.41],[740500.74,4554119.81],[740497.7,4554135.51],[740491.12,4554165.4],[740490.61,4554183.64],[740496.18,4554212.0],[740503.78,4554243.41],[740510.36,4554266.2],[740528.09,4554299.64],[740545.82,4554323.95],[740555.96,4554345.23],[740570.14,4554363.97],[740584.83,4554387.27],[740600.53,4554404.5],[740613.7,4554425.77],[740628.39,4554444.01],[740647.14,4554461.23],[740664.36,4554481.49],[740677.53,4554498.21],[740689.69,4554512.39],[740695.26,4554521.01],[740707.42,4554561.02],[740716.54,4554583.31],[740726.67,4554604.59],[740737.31,4554628.4],[740732.24,4554664.36],[740731.23,4554685.64],[740736.8,4554715.53],[740742.37,4554735.28],[740747.94,4554744.91],[740757.8,4554757.92],[740784.63,4554748.25],[740817.98,4554744.15],[740843.03,4554739.31],[740858.89,4554729.92],[740878.26,4554702.32],[740894.11,4554684.12],[740914.08,4554657.11],[740931.69,4554632.45],[740947.54,4554602.51],[740949.31,4554579.02],[740948.13,4554547.91],[740949.89,4554526.18],[740953.42,4554505.04],[740958.11,4554479.8],[740973.97,4554463.36],[740992.17,4554448.09],[741015.65,4554432.24],[741032.68,4554424.61],[741063.21,4554413.45],[741074.95,4554402.88],[741095.5,4554387.62],[741106.07,4554365.3],[741113.71,4554339.47],[741117.23,4554315.98],[741118.4,4554294.26],[741121.93,4554274.88],[741133.67,4554244.35],[741140.13,4554230.26],[741151.28,4554208.54],[741162.44,4554185.64],[741170.07,4554162.74],[741174.77,4554148.06],[741188.86,4554135.14],[741199.43,4554125.75],[741212.93,4554112.25],[741223.5,4554098.15],[741234.66,4554071.73],[741239.35,4554057.64],[741239.35,4554050.6],[741239.94,4554035.92],[741238.18,4554018.3],[741235.24,4553994.23],[741234.07,4553970.16],[741233.48,4553951.37],[741235.83,4553930.82],[741233.34,4553902.7],[741224.91,4553873.19],[741214.07,4553853.32],[741196.01,4553820.2],[741172.52,4553797.92],[741155.66,4553772.03],[741144.22,4553751.56],[741129.77,4553728.07],[741120.13,4553699.77],[741107.49,4553667.25],[741099.06,4553647.38],[741087.62,4553625.1],[741076.78,4553604.63],[741071.96,4553592.59],[741062.33,4553569.71],[741050.89,4553551.04],[741041.85,4553542.01],[741029.81,4553529.96],[741018.97,4553519.73],[741024.39,4553516.72],[741035.23,4553522.74],[741048.48,4553539.0],[741065.34,4553558.87],[741079.19,4553579.34],[741097.25,4553605.23],[741114.72,4553635.34],[741126.76,4553663.64],[741140.01,4553689.53],[741157.47,4553716.03],[741169.51,4553742.52],[741189.38,4553773.23],[741202.03,4553777.45],[741210.46,4553772.63],[741220.69,4553766.61],[741224.91,4553759.39],[741232.14,4553746.14],[741231.53,4553731.69],[741226.11,4553710.61],[741220.69,4553699.17],[741208.05,4553681.1],[741193.0,4553660.63],[741174.33,4553635.34],[741158.67,4553609.45],[741148.44,4553591.99],[741130.97,4553572.72],[741119.53,4553558.26],[741111.7,4553539.6],[741104.48,4553516.72],[741102.67,4553505.27],[741099.06,4553490.22],[741102.07,4553485.4],[741111.1,4553470.95],[741119.53,4553457.7],[741125.55,4553457.1],[741134.59,4553474.56],[741141.21,4553496.84],[741150.24,4553524.54],[741164.09,4553545.62],[741185.17,4553584.76],[741193.6,4553602.82],[741206.24,4553625.71],[741226.11,4553655.21],[741234.54,4553671.47],[741243.58,4553678.09],[741258.03,4553699.53],[741272.48,4553726.63],[741276.7,4553736.86],[741292.95,4553765.17],[741294.76,4553783.83],[741297.77,4553801.9],[741297.77,4553826.59],[741298.37,4553851.27],[741294.76,4553875.36],[741300.78,4553883.19],[741311.02,4553884.39],[741323.06,4553873.55],[741338.72,4553853.08],[741358.59,4553827.19],[741372.44,4553807.32],[741377.86,4553772.99],[741380.27,4553755.53],[741386.29,4553721.81],[741386.89,4553703.14],[741382.68,4553667.62],[741377.26,4553645.94],[741373.04,4553615.83],[741368.83,4553598.01],[741368.83,4553576.93],[741359.19,4553552.84],[741344.14,4553532.97],[741328.48,4553510.09],[741326.67,4553496.84],[741325.47,4553482.75],[741322.46,4553458.67],[741323.66,4553436.39],[741336.31,4553426.15],[741353.17,4553426.75],[741364.61,4553448.43],[741373.04,4553468.9],[741376.65,4553486.37],[741385.69,4553511.66],[741397.73,4553545.38],[741403.75,4553567.66],[741413.39,4553588.73],[741421.82,4553606.8],[741426.63,4553632.09],[741430.25,4553662.8],[741434.46,4553699.53],[741436.87,4553734.46],[741436.87,4553760.95],[741427.24,4553786.84],[741420.01,4553819.96],[741417.6,4553839.83],[741404.35,4553867.53],[741391.71,4553886.8],[741380.27,4553900.65],[741353.17,4553917.51],[741327.28,4553929.56],[741304.4,4553943.4],[741289.94,4553960.14],[741283.32,4553969.78],[741279.1,4553987.84],[741276.34,4554009.5],[741278.69,4554033.57],[741272.23,4554051.18],[741270.47,4554068.21],[741269.3,4554093.46],[741265.19,4554112.83],[741259.9,4554136.32],[741248.75,4554151.58],[741241.12,4554166.26],[741227.02,4554184.46],[741205.89,4554202.08],[741185.34,4554220.87],[741174.77,4554242.0],[741170.66,4554257.27],[741169.48,4554281.93],[741168.31,4554301.31],[741163.61,4554345.93],[741158.92,4554362.96],[741152.46,4554382.92],[741145.41,4554396.42],[741144.82,4554407.58],[741136.6,4554422.84],[741164.09,4554446.0],[741207.48,4554459.76],[741225.95,4554467.49],[741260.4,4554468.22],[741295.32,4554465.05],[741320.72,4554465.05],[741369.41,4554468.22],[741402.22,4554473.51],[741442.43,4554483.04],[741463.6,4554496.8],[741492.17,4554511.62],[741521.81,4554525.37],[741541.92,4554542.31],[741575.78,4554564.53],[741612.82,4554566.65],[741648.81,4554568.77],[741713.37,4554578.29],[741748.29,4554579.35],[741798.03,4554585.7],[741823.43,4554578.29],[741865.77,4554548.66],[741900.69,4554535.96],[741934.56,4554556.07],[741930.33,4554573.0],[741892.23,4554584.64],[741856.24,4554598.4],[741785.33,4554619.57],[741729.24,4554625.92],[741697.49,4554622.74],[741693.26,4554647.08],[741697.49,4554666.13],[741685.85,4554676.72],[741672.09,4554659.78],[741665.74,4554635.44],[741663.62,4554616.39],[741620.23,4554605.81],[741587.42,4554597.34],[741538.74,4554580.41],[741503.82,4554560.3],[741473.12,4554546.54],[741455.13,4554543.37],[741435.02,4554519.02],[741421.27,4554509.5],[741387.4,4554508.44],[741358.82,4554510.56],[741334.48,4554498.92],[741322.84,4554493.62],[741288.97,4554493.62],[741263.57,4554496.8],[741250.87,4554498.92],[741224.24,4554502.64],[741192.67,4554492.57],[741152.45,4554487.27],[741128.11,4554475.63],[741109.01,4554453.96],[741094.92,4554459.25],[741067.32,4554461.6],[741057.84,4554466.63],[741062.6,4554471.79],[741055.45,4554493.22],[741032.43,4554507.91],[741010.21,4554527.35],[740999.89,4554543.23],[740987.98,4554551.17],[740989.23,4554574.33],[740993.34,4554592.53],[740994.52,4554606.03],[740993.93,4554622.47],[740991.58,4554629.52],[740979.25,4554643.61],[740968.68,4554652.42],[740962.81,4554660.05],[740954.0,4554669.44],[740941.09,4554678.84],[740931.69,4554686.47],[740924.65,4554698.21],[740917.6,4554704.09],[740919.36,4554715.83],[740927.58,4554722.87],[740935.8,4554732.27],[740948.72,4554744.01],[740961.64,4554753.41],[740974.55,4554763.97],[740989.82,4554768.08],[741005.08,4554781.59],[741031.51,4554793.92],[741057.93,4554800.96],[741086.7,4554799.2],[741108.42,4554793.92],[741141.3,4554783.94],[741157.74,4554775.72],[741171.25,4554768.08],[741197.08,4554765.15],[741224.09,4554765.15],[741239.35,4554766.91],[741251.1,4554771.61],[741228.2,4554783.35],[741216.46,4554785.7],[741204.71,4554786.87],[741199.43,4554788.05],[741175.36,4554790.4],[741160.68,4554795.68],[741139.54,4554807.42],[741129.56,4554813.88],[741109.6,4554818.58],[741094.92,4554821.51],[741081.41,4554822.1],[741059.1,4554822.1],[741037.38,4554819.17],[741020.94,4554810.95],[740993.34,4554801.55],[740963.98,4554788.05],[740946.96,4554772.78],[740928.45,4554761.91],[740928.85,4554778.58],[740916.15,4554798.82],[740921.31,4554819.06],[740934.01,4554828.58],[740923.69,4554838.11],[740903.85,4554834.93],[740897.1,4554821.04],[740896.7,4554803.58],[740896.31,4554793.66],[740895.51,4554779.37],[740893.93,4554768.65],[740896.7,4554757.94],[740877.09,4554764.56],[740858.89,4554772.19],[740843.03,4554775.13],[740822.33,4554778.23],[740808.31,4554794.66],[740793.91,4554801.6],[740838.76,4554834.14],[740864.95,4554861.92],[740889.56,4554876.6],[740912.18,4554887.32],[740935.6,4554899.62],[740959.41,4554914.31],[740973.3,4554928.2],[740980.44,4554948.44],[740984.41,4554965.9],[740975.68,4554995.27],[740955.44,4555020.27],[740937.98,4555030.99],[740908.21,4555037.74],[740884.4,4555030.99],[740866.94,4555017.5],[740850.67,4555005.99],[740835.19,4554991.3],[740826.85,4554982.57],[740818.92,4554959.55],[740824.87,4554937.33],[740827.25,4554921.85],[740829.23,4554906.77],[740825.27,4554893.27],[740815.74,4554885.34],[740798.28,4554876.6],[740789.15,4554871.45],[740777.64,4554862.71],[740770.1,4554848.43],[740766.01,4554852.19],[740759.97,4554854.12],[740750.65,4554854.78],[740746.29,4554866.29],[740740.33,4554869.06],[740738.75,4554869.06],[740742.57,4554874.42],[740749.58,4554885.54],[740752.24,4554890.86],[740755.86,4554899.56],[740758.76,4554905.6],[740761.91,4554913.1],[740766.5,4554921.31],[740773.75,4554933.4],[740778.58,4554943.31],[740782.21,4554956.6],[740779.79,4554961.2],[740774.72,4554960.71],[740767.95,4554956.12],[740761.66,4554945.24],[740754.17,4554940.65],[740742.71,4554936.3],[740745.49,4554951.61],[740740.33,4554966.3],[740724.86,4554986.54],[740697.87,4555009.56],[740626.83,4555027.81],[740624.13,4555030.81],[740620.02,4555037.09],[740616.88,4555041.2],[740613.5,4555040.23],[740606.97,4555036.12],[740602.14,4555027.18],[740596.58,4555015.82],[740588.36,4555003.98],[740580.39,4554991.3],[740578.01,4555018.29],[740575.23,4555048.45],[740557.37,4555059.17],[740536.34,4555052.82],[740527.61,4555038.53],[740525.23,4555022.66],[740526.82,4555008.37],[740523.64,4554993.29],[740512.13,4554980.98],[740500.22,4554968.28],[740487.52,4554951.22],[740479.98,4554938.12],[740478.0,4554922.25],[740483.16,4554910.34],[740490.29,4554899.84],[740480.8,4554903.91],[740474.76,4554909.23],[740464.61,4554920.11],[740457.6,4554925.18],[740445.76,4554932.19],[740438.99,4554938.48],[740428.09,4554947.78],[740442.28,4554950.82],[740451.01,4554961.54],[740460.54,4554982.57],[740442.68,4554983.76],[740422.44,4554989.32],[740419.66,4555002.81],[740419.26,4555021.86],[740417.28,4555040.12],[740419.66,4555054.8],[740433.55,4555072.26],[740442.28,4555085.36],[740443.47,4555104.41],[740454.41,4555101.95],[740464.31,4555101.66],[740475.67,4555105.74],[740490.82,4555115.65],[740505.68,4555127.3],[740524.62,4555143.32],[740544.13,4555159.93],[740561.61,4555177.99],[740583.17,4555195.47],[740603.56,4555210.91],[740616.67,4555222.27],[740630.65,4555237.13],[740642.89,4555251.4],[740658.62,4555262.18],[740677.27,4555270.04],[740695.04,4555282.86],[740708.44,4555293.35],[740718.63,4555305.88],[740728.83,4555313.16],[740749.8,4555317.53],[740769.9,4555320.15],[740791.46,4555328.02],[740808.65,4555341.13],[740823.51,4555351.03],[740842.73,4555363.85],[740858.46,4555375.79],[740883.81,4555384.53],[740897.21,4555385.41],[740920.22,4555375.79],[740934.21,4555367.34],[740951.69,4555364.43],[740968.0,4555356.86],[740985.77,4555346.95],[740998.59,4555336.46],[741011.41,4555323.65],[741021.89,4555310.54],[741028.59,4555298.01],[741032.38,4555287.52],[741039.66,4555272.67],[741046.95,4555259.56],[741058.89,4555251.98],[741066.76,4555246.74],[741081.32,4555247.9],[741102.3,4555249.94],[741124.44,4555250.23],[741143.37,4555240.91],[741156.48,4555231.01],[741165.51,4555224.6],[741181.24,4555215.86],[741197.56,4555202.46],[741214.16,4555188.18],[741229.02,4555172.74],[741241.25,4555155.27],[741251.45,4555138.95],[741275.34,4555122.35],[741298.35,4555103.99],[741313.79,4555089.43],[741334.18,4555075.15],[741357.49,4555060.3],[741384.87,4555041.94],[741393.86,4555034.75],[741437.25,4555024.17],[741467.94,4555036.87],[741520.86,4555047.45],[741551.55,4555064.38],[741548.37,4555076.02],[741530.38,4555076.02],[741495.46,4555070.73],[741461.2,4555073.99],[741454.5,4555074.57],[741433.81,4555078.36],[741414.0,4555082.73],[741395.36,4555087.39],[741367.39,4555097.29],[741348.46,4555103.99],[741331.85,4555112.15],[741317.0,4555124.97],[741309.13,4555133.13],[741297.19,4555142.45],[741286.99,4555153.23],[741277.09,4555164.88],[741269.51,4555177.11],[741252.91,4555187.6],[741240.67,4555196.34],[741227.85,4555203.33],[741213.87,4555211.2],[741204.26,4555216.44],[741196.39,4555225.18],[741190.57,4555233.92],[741178.91,4555244.12],[741168.72,4555256.94],[741153.28,4555267.71],[741145.41,4555275.0],[741136.67,4555280.82],[741117.44,4555288.11],[741102.59,4555291.89],[741090.35,4555291.6],[741072.87,4555295.1],[741066.46,4555300.34],[741053.35,4555311.41],[741049.57,4555321.61],[741042.28,4555332.09],[741033.25,4555344.04],[741025.1,4555348.41],[740999.46,4555360.64],[740983.73,4555371.42],[740976.16,4555376.08],[740963.34,4555381.91],[740947.9,4555388.61],[740935.95,4555393.85],[740929.25,4555398.22],[740919.06,4555402.59],[740909.74,4555407.55],[740896.63,4555411.62],[740883.52,4555412.79],[740870.41,4555412.21],[740861.38,4555408.42],[740849.72,4555406.09],[740840.4,4555402.01],[740821.18,4555390.94],[740810.69,4555382.78],[740797.0,4555369.09],[740789.13,4555363.85],[740781.56,4555361.23],[740773.4,4555359.77],[740762.62,4555358.02],[740755.05,4555353.94],[740743.1,4555344.04],[740730.87,4555339.09],[740716.59,4555332.68],[740705.81,4555327.14],[740698.53,4555323.94],[740690.67,4555317.24],[740681.63,4555308.21],[740672.9,4555298.01],[740665.32,4555294.81],[740658.04,4555290.15],[740649.59,4555285.19],[740638.52,4555281.41],[740630.95,4555277.33],[740618.71,4555270.34],[740604.14,4555259.56],[740595.11,4555250.82],[740586.67,4555238.58],[740574.14,4555222.85],[740564.82,4555206.54],[740559.57,4555202.17],[740547.34,4555194.88],[740536.56,4555185.85],[740521.99,4555173.33],[740515.88,4555164.88],[740501.66,4555148.89],[740503.91,4555162.42],[740501.09,4555171.44],[740494.89,4555174.83],[740479.95,4555169.75],[740466.14,4555164.68],[740447.26,4555159.61],[740428.94,4555164.4],[740416.53,4555170.88],[740394.83,4555182.44],[740389.47,4555195.12],[740384.12,4555198.79],[740371.72,4555198.5],[740362.7,4555192.87],[740357.06,4555185.26],[740351.49,4555195.41],[740347.87,4555206.77],[740344.97,4555219.58],[740338.2,4555231.42],[740328.77,4555238.91],[740316.2,4555246.41],[740307.5,4555250.03],[740297.83,4555259.22],[740290.1,4555266.71],[740283.33,4555270.33],[740281.4,4555281.94],[740280.91,4555286.29],[740287.2,4555301.51],[740298.32,4555311.67],[740311.61,4555318.92],[740326.35,4555329.31],[740347.14,4555340.91],[740363.58,4555351.31],[740382.67,4555364.84],[740403.7,4555380.07],[740430.05,4555395.78],[740443.58,4555406.66],[740462.92,4555414.15],[740482.5,4555425.27],[740507.15,4555440.25],[740528.66,4555453.06],[740554.52,4555466.11],[740562.74,4555469.5],[740578.21,4555475.54],[740596.82,4555485.93],[740611.57,4555496.09],[740624.38,4555508.17],[740639.6,4555517.84],[740653.14,4555526.78],[740663.77,4555538.38],[740666.92,4555553.37],[740666.67,4555563.28],[740663.53,4555569.32],[740650.96,4555578.27],[740643.23,4555579.23],[740633.08,4555578.75],[740623.65,4555577.54],[740614.71,4555568.36],[740597.55,4555554.34],[740584.01,4555543.7],[740572.41,4555532.34],[740557.42,4555524.85],[740539.78,4555506.96],[740534.7,4555496.81],[740525.28,4555490.53],[740512.47,4555478.68],[740501.11,4555467.32],[740489.02,4555455.48],[740480.56,4555446.54],[740470.89,4555433.73],[740458.08,4555420.43],[740443.34,4555412.21],[740430.29,4555403.27],[740415.79,4555395.78],[740393.31,4555384.42],[740376.87,4555374.75],[740365.27,4555365.81],[740346.17,4555356.62],[740334.81,4555351.55],[740326.35,4555344.3],[740318.86,4555338.5],[740311.61,4555333.9],[740304.84,4555329.55],[740279.46,4555318.43],[740282.85,4555327.14],[740282.61,4555335.59],[740280.43,4555343.81],[740278.01,4555349.37],[740271.25,4555350.34],[740259.16,4555352.27],[740249.73,4555350.82],[740238.62,4555352.51],[740226.53,4555357.11],[740214.45,4555362.67],[740200.67,4555369.19],[740187.62,4555371.37],[740180.85,4555372.33],[740174.05,4555375.85],[740176.55,4555380.84],[740184.76,4555392.93],[740194.67,4555403.08],[740209.18,4555414.2],[740225.61,4555425.07],[740241.81,4555437.4],[740258.24,4555446.34],[740274.68,4555454.32],[740291.84,4555462.05],[740302.23,4555469.55],[740304.17,4555476.31],[740295.46,4555476.56],[740282.41,4555468.82],[740267.19,4555458.67],[740250.51,4555450.69],[740237.21,4555444.41],[740221.75,4555434.74],[740206.03,4555424.83],[740192.74,4555413.71],[740182.35,4555400.42],[740174.13,4555388.58],[740162.53,4555378.18],[740154.55,4555370.45],[740144.88,4555356.19],[740141.98,4555346.04],[740139.37,4555341.12],[740136.9,4555336.58],[740129.31,4555337.92],[740119.23,4555345.53],[740112.21,4555360.26],[740086.96,4555363.07],[740059.59,4555382.71],[740032.93,4555403.06],[740010.48,4555411.48],[739954.35,4555422.0],[739934.0,4555429.02],[739911.55,4555435.33],[739914.88,4555448.06],[739928.17,4555458.25],[739939.69,4555473.75],[739955.64,4555488.82],[739972.04,4555506.1],[739985.33,4555518.06],[740003.49,4555533.56],[740016.78,4555541.54],[740034.06,4555553.06],[740051.78,4555565.91],[740068.18,4555573.88],[740081.47,4555582.74],[740094.31,4555590.72],[740111.15,4555601.79],[740128.87,4555609.77],[740155.45,4555626.16],[740164.76,4555631.92],[740174.95,4555642.11],[740197.54,4555664.7],[740216.59,4555670.46],[740226.78,4555677.11],[740223.24,4555686.41],[740211.28,4555697.93],[740195.33,4555698.38],[740171.85,4555687.3],[740153.24,4555669.58],[740136.4,4555646.1],[740114.25,4555628.82],[740090.77,4555610.65],[740057.99,4555594.7],[740041.15,4555586.73],[740023.11,4555581.97],[740011.88,4555600.21],[739988.73,4555617.05],[739970.49,4555617.75],[739955.75,4555616.35],[739926.29,4555610.04],[739909.45,4555597.41],[739887.7,4555583.37],[739871.56,4555571.45],[739849.11,4555572.15],[739842.79,4555586.88],[739844.2,4555607.93],[739859.63,4555630.38],[739884.89,4555657.75],[739882.79,4555700.54],[739874.37,4555707.56],[739863.14,4555718.08],[739845.6,4555727.2],[739831.57,4555727.91],[739810.52,4555717.38],[739788.77,4555708.96],[739760.71,4555705.45],[739744.57,4555694.93],[739729.13,4555684.41],[739712.29,4555673.18],[739705.98,4555657.04],[739712.29,4555641.61],[739726.33,4555630.38],[739741.76,4555628.28],[739737.22,4555622.17],[739728.81,4555611.54],[739719.06,4555597.81],[739712.41,4555584.96],[739698.96,4555551.95],[739696.86,4555568.78],[739686.33,4555580.71],[739672.3,4555578.6],[739654.76,4555574.39],[739636.52,4555582.11],[739623.89,4555595.44],[739621.79,4555615.09],[739622.63,4555630.33],[739617.78,4555644.97],[739614.5,4555656.43],[739630.01,4555661.69],[739643.74,4555663.91],[739667.67,4555673.21],[739685.83,4555686.95],[739696.91,4555707.33],[739694.69,4555720.17],[739680.96,4555717.52],[739669.0,4555709.54],[739644.18,4555691.38],[739631.78,4555679.41],[739610.14,4555677.72],[739613.41,4555690.27],[739615.6,4555703.3],[739611.96,4555709.8],[739601.44,4555727.35],[739593.02,4555737.17],[739587.41,4555742.78],[739576.88,4555741.38],[739570.57,4555718.22],[739569.01,4555714.91],[739566.36,4555709.28],[739563.15,4555690.67],[739560.27,4555700.62],[739557.06,4555706.08],[739550.96,4555714.1],[739542.3,4555719.55],[739537.8,4555725.97],[739533.95,4555734.63],[739529.14,4555742.34],[739522.4,4555748.11],[739514.06,4555756.78],[739502.51,4555767.04],[739495.13,4555778.92],[739489.6,4555785.27],[739486.81,4555788.49],[739483.53,4555810.87],[739477.53,4555833.24],[739466.07,4555849.07],[739449.01,4555861.79],[739468.53,4555861.72],[739489.17,4555861.72],[739518.8,4555863.84],[739542.62,4555866.48],[739562.72,4555867.54],[739577.01,4555868.6],[739598.71,4555866.48],[739614.05,4555863.31],[739623.58,4555864.9],[739611.41,4555870.19],[739597.12,4555875.48],[739580.72,4555880.24],[739568.02,4555885.53],[739541.03,4555890.3],[739521.45,4555896.12],[739519.33,4555902.47],[739516.16,4555915.17],[739505.57,4555933.69],[739492.35,4555951.68],[739473.3,4555958.03],[739447.9,4555965.97]],[[741186.03,4555017.1],[741178.09,4555027.81],[741144.75,4555013.92],[741140.39,4554995.67],[741148.72,4554986.14],[741154.28,4554977.01],[741156.66,4554971.46],[741158.64,4554964.71],[741158.24,4554954.0],[741157.05,4554945.66],[741148.72,4554935.74],[741138.4,4554930.18],[741124.91,4554923.04],[741116.18,4554913.12],[741109.43,4554901.21],[741109.03,4554889.3],[741111.81,4554877.0],[741117.76,4554867.08],[741127.69,4554859.54],[741138.0,4554852.79],[741145.54,4554854.38],[741158.64,4554859.54],[741169.36,4554863.11],[741179.68,4554880.97],[741180.47,4554903.59],[741187.22,4554913.51],[741196.34,4554921.85],[741202.3,4554933.36],[741203.89,4554951.22],[741202.69,4554967.49],[741198.73,4554982.97],[741194.76,4554997.65],[741186.03,4555017.1]],[[741043.55,4554878.59],[741022.12,4554883.35],[741007.83,4554859.14],[741016.56,4554840.09],[741041.56,4554833.35],[741051.88,4554845.25],[741049.1,4554865.49],[741043.55,4554878.59]],[[741078.08,4554983.36],[741065.77,4554983.76],[741032.04,4554946.85],[741045.13,4554932.96],[741059.42,4554928.99],[741070.93,4554930.98],[741079.27,4554933.75],[741091.97,4554940.1],[741102.68,4554946.45],[741107.84,4554951.61],[741111.81,4554960.74],[741099.9,4554976.62],[741089.59,4554982.57],[741078.08,4554983.36]],[[740514.62,4555066.59],[740501.09,4555067.15],[740485.59,4555058.13],[740483.34,4555020.64],[740491.51,4555009.65],[740498.84,4555012.47],[740508.71,4555027.97],[740514.06,4555043.76],[740519.42,4555053.06],[740523.64,4555060.95],[740514.62,4555066.59]],[[741031.64,4554767.86],[741025.69,4554773.02],[741017.75,4554771.43],[741012.99,4554765.08],[741010.21,4554753.57],[741019.34,4554747.62],[741030.05,4554746.03],[741035.61,4554754.37],[741031.64,4554767.86]]]},"properties":{"SoilType":"Regolith","SoilCode":2,"SOILthick":0.75,"ibound_l1":1,"ibound_l2":1,"iuzfbnd":1}}]}