{"type":"FeatureCollection","marmites":{"generated":"2026-09-11 13:06","generator":"code/tools/gis_to_dataset.py","source":"E:\\00code_ws\\LAMATA_new\\GIS\\202109MonitPts.shp","size":324,"mtime":"2021-09-26 22:45","features":8,"crs":"EPSG:23029"},"features":[{"type":"Feature","geometry":{"type":"Point","coordinates":[739525.0,4555875.0]},"properties":{"Name":"P0","lay":1,"hi":2.0,"h0":739.6,"RC":50,"STO":0.025,"NameReal":"Ptb2","onMap":1}},{"type":"Feature","geometry":{"type":"Point","coordinates":[739575.0,4555925.0]},"properties":{"Name":"SM","lay":1,"hi":2.0,"h0":742.3,"RC":50,"STO":0.025,"NameReal":"ilex","onMap":1}},{"type":"Feature","geometry":{"type":"Point","coordinates":[740528.0,4554369.0]},"properties":{"Name":"C1","lay":1,"hi":2.0,"h0":770.9,"RC":50,"STO":0.025,"NameReal":"NA","onMap":1}},{"type":"Feature","geometry":{"type":"Point","coordinates":[740695.0,4554630.0]},"properties":{"Name":"C2","lay":1,"hi":2.0,"h0":767.0,"RC":50,"STO":0.025,"NameReal":"NA","onMap":1}},{"type":"Feature","geometry":{"type":"Point","coordinates":[740320.0,4555219.0]},"properties":{"Name":"C3","lay":1,"hi":2.0,"h0":752.0,"RC":50,"STO":0.025,"NameReal":"NA","onMap":1}},{"type":"Feature","geometry":{"type":"Point","coordinates":[740764.0,4555342.0]},"properties":{"Name":"C4","lay":1,"hi":2.0,"h0":767.5,"RC":50,"STO":0.025,"NameReal":"NA","onMap":1}},{"type":"Feature","geometry":{"type":"Point","coordinates":[741583.0,4554574.0]},"properties":{"Name":"C5","lay":1,"hi":2.0,"h0":788.1,"RC":50,"STO":0.025,"NameReal":"NA","onMap":1}},{"type":"Feature","geometry":{"type":"Point","coordinates":[739625.0,4555925.0]},"properties":{"Name":"EC","lay":1,"hi":2.0,"h0":745.4,"RC":50,"STO":0.025,"NameReal":"NA","onMap":1}}]}