{"type":"FeatureCollection","marmites":{"generated":"2026-09-11 17:01","generator":"code/tools/gis_to_dataset.py","source":"E:\\00code_ws\\LAMATA_new\\GIS\\lm_ponds.shp","size":3460,"mtime":"2026-07-22 20:34","features":12,"crs":"EPSG:23029"},"features":[{"type":"Feature","geometry":{"type":"Polygon","coordinates":[[[740507.0,4554378.3],[740517.55,4554385.71],[740527.82,4554385.14],[740535.23,4554378.58],[740537.8,4554366.89],[740533.8,4554352.63],[740528.1,4554348.93],[740511.56,4554350.35],[740503.29,4554358.91],[740502.72,4554371.45],[740502.72,4554371.45],[740507.0,4554378.3]]]},"properties":{"id":1}},{"type":"Feature","geometry":{"type":"Polygon","coordinates":[[[740606.52,4554488.65],[740609.37,4554495.5],[740616.78,4554499.49],[740622.77,4554499.49],[740629.04,4554496.64],[740635.6,4554492.36],[740635.89,4554482.38],[740635.03,4554475.82],[740626.48,4554472.4],[740619.63,4554472.4],[740612.22,4554476.96],[740607.94,4554480.95],[740606.52,4554488.65]]]},"properties":{"id":2}},{"type":"Feature","geometry":{"type":"Polygon","coordinates":[[[740697.2,4554611.55],[740686.93,4554610.41],[740674.38,4554614.4],[740669.82,4554621.25],[740669.82,4554632.65],[740675.52,4554641.78],[740685.79,4554643.77],[740695.77,4554641.78],[740704.04,4554636.08],[740708.32,4554629.8],[740707.18,4554618.4],[740697.2,4554611.55]]]},"properties":{"id":3}},{"type":"Feature","geometry":{"type":"Polygon","coordinates":[[[741337.65,4553899.81],[741350.19,4553898.67],[741365.88,4553891.26],[741374.72,4553880.14],[741376.71,4553861.32],[741370.15,4553852.48],[741354.75,4553847.63],[741339.93,4553852.48],[741329.38,4553865.31],[741323.96,4553880.42],[741325.1,4553890.12],[741330.23,4553896.68],[741337.65,4553899.81]]]},"properties":{"id":4}},{"type":"Feature","geometry":{"type":"Polygon","coordinates":[[[741115.51,4554297.6],[741124.92,4554297.89],[741135.19,4554294.18],[741144.6,4554289.05],[741147.16,4554281.92],[741147.16,4554267.66],[741144.31,4554255.4],[741138.61,4554244.56],[741129.77,4554245.7],[741120.36,4554251.69],[741112.38,4554265.09],[741108.95,4554275.64],[741108.38,4554286.19],[741115.51,4554297.6]]]},"properties":{"id":5}},{"type":"Feature","geometry":{"type":"Polygon","coordinates":[[[740920.75,4554674.86],[740928.45,4554676.28],[740936.72,4554672.29],[740943.28,4554663.16],[740943.85,4554653.47],[740941.0,4554647.48],[740935.01,4554644.34],[740927.88,4554646.06],[740920.18,4554649.19],[740913.63,4554660.31],[740915.91,4554667.44],[740920.75,4554674.86]]]},"properties":{"id":7}},{"type":"Feature","geometry":{"type":"Polygon","coordinates":[[[742081.61,4554894.07],[742089.3,4554897.2],[742096.15,4554897.92],[742103.28,4554897.49],[742111.4,4554892.64],[742116.54,4554886.65],[742118.1,4554878.95],[742115.97,4554872.39],[742112.54,4554866.83],[742107.84,4554863.41],[742100.14,4554860.99],[742091.87,4554859.28],[742084.74,4554859.28],[742075.76,4554860.99],[742071.2,4554867.26],[742069.2,4554876.39],[742075.62,4554888.08],[742077.76,4554890.93],[742081.61,4554894.07]]]},"properties":{"id":8}},{"type":"Feature","geometry":{"type":"Polygon","coordinates":[[[740742.96,4555352.73],[740750.95,4555359.29],[740760.07,4555359.58],[740769.77,4555359.86],[740774.9,4555357.86],[740778.32,4555354.44],[740781.17,4555347.03],[740780.89,4555335.62],[740774.33,4555325.64],[740768.91,4555321.37],[740757.22,4555320.79],[740751.23,4555322.22],[740744.67,4555328.21],[740740.97,4555335.34],[740740.68,4555346.46],[740742.96,4555352.73]]]},"properties":{"id":9}},{"type":"Feature","geometry":{"type":"Polygon","coordinates":[[[740322.08,4555198.47],[740316.09,4555194.76],[740307.25,4555199.04],[740302.12,4555206.73],[740293.85,4555216.71],[740289.86,4555226.7],[740293.28,4555236.96],[740296.42,4555245.51],[740310.1,4555250.08],[740321.22,4555247.23],[740326.93,4555239.53],[740329.21,4555231.83],[740328.07,4555213.86],[740322.08,4555198.47]]]},"properties":{"id":10}},{"type":"Feature","geometry":{"type":"Polygon","coordinates":[[[741565.48,4554575.27],[741569.62,4554581.68],[741575.89,4554584.53],[741582.31,4554584.82],[741589.43,4554582.97],[741595.28,4554578.83],[741596.99,4554571.99],[741596.71,4554565.86],[741591.86,4554560.58],[741586.3,4554558.44],[741578.88,4554558.3],[741571.61,4554559.73],[741565.34,4554565.14],[741564.77,4554570.42],[741565.48,4554575.27]]]},"properties":{"id":11}},{"type":"Feature","geometry":{"type":"Polygon","coordinates":[[[741474.66,4554537.63],[741478.65,4554539.05],[741483.36,4554535.92],[741487.35,4554531.64],[741488.78,4554525.65],[741488.78,4554519.95],[741484.78,4554517.24],[741476.37,4554517.95],[741469.96,4554521.09],[741467.67,4554526.93],[741468.82,4554532.35],[741474.66,4554537.63]]]},"properties":{"id":12}},{"type":"Feature","geometry":{"type":"Polygon","coordinates":[[[740304.26,4555078.27],[740308.82,4555074.57],[740309.39,4555071.14],[740310.82,4555064.87],[740311.1,4555052.9],[740311.1,4555039.78],[740312.81,4555029.8],[740314.24,4555018.68],[740312.24,4555015.26],[740307.68,4555018.11],[740297.98,4555027.23],[740293.42,4555040.35],[740289.71,4555046.05],[740293.14,4555060.31],[740297.41,4555075.14],[740304.26,4555078.27]]]},"properties":{"id":13}}]}