{"type":"FeatureCollection","marmites":{"generated":"2026-09-26 14:16","generator":"code/tools/gis_to_dataset.py","source":"E:\\00code_ws\\LAMATA_new\\GIS\\lm_outlet_drn.shp","size":424,"mtime":"2026-09-24 16:02","features":1,"crs":"EPSG:23029"},"features":[{"type":"Feature","geometry":{"type":"MultiLineString","coordinates":[[[739348.95,4555900.0],[739337.7,4555910.3],[739332.7,4555931.3],[739300.0,4555993.47]],[[739300.0,4556027.96],[739302.4,4556036.0],[739325.1,4556067.9],[739349.93,4556091.79],[739350.0,4556091.88]],[[739357.19,4556100.0],[739372.84,4556117.68],[739395.27,4556148.76],[739396.42,4556150.0]],[[739400.0,4556153.85],[739424.04,4556179.68],[739450.0,4556178.33]]]},"properties":{}}]}