{"type":"FeatureCollection","marmites":{"generated":"2026-09-11 13:06","generator":"code/tools/gis_to_dataset.py","source":"E:\\00code_ws\\LAMATA_new\\GIS\\lm_lim.shp","size":5388,"mtime":"2014-12-26 15:40","features":1,"crs":"EPSG:23029"},"features":[{"type":"Feature","geometry":{"type":"Polygon","coordinates":[[[739337.7,4555910.3],[739332.7,4555931.3],[739293.44,4556005.95],[739302.4,4556036.0],[739325.1,4556067.9],[739349.93,4556091.79],[739372.84,4556117.68],[739395.27,4556148.76],[739424.04,4556179.68],[739494.89,4556175.99],[739517.68,4556157.51],[739576.83,4556161.82],[739608.73,4556164.94],[739688.05,4556160.03],[739742.66,4556100.8],[739744.93,4556072.5],[739737.96,4556060.01],[739756.91,4556051.56],[739780.37,4556033.19],[739801.22,4556044.82],[739828.94,4556034.64],[739851.84,4556061.22],[739873.52,4556073.32],[739952.93,4556063.76],[740013.5,4556069.94],[740039.93,4556091.8],[740065.49,4556089.75],[740098.13,4556115.31],[740108.5,4556119.94],[740128.01,4556133.77],[740148.5,4556139.94],[740163.13,4556145.31],[740208.07,4556157.54],[740233.13,4556175.31],[740266.88,4556196.45],[740293.17,4556226.96],[740316.43,4556239.94],[740337.58,4556231.83],[740339.92,4556202.62],[740337.8,4556176.17],[740353.32,4556174.92],[740392.68,4556178.08],[740437.76,4556164.51],[740438.82,4556151.36],[740409.77,4556116.25],[740428.13,4556094.94],[740452.08,4556087.73],[740458.13,4556034.94],[740483.53,4556030.3],[740480.99,4555998.66],[740488.13,4555974.94],[740501.04,4555963.82],[740493.5,4555889.94],[740474.9,4555866.18],[740468.5,4555844.94],[740463.13,4555835.31],[740458.5,4555824.94],[740450.82,4555812.62],[740433.41,4555788.57],[740445.93,4555752.15],[740453.41,4555745.22],[740459.18,4555732.99],[740483.41,4555715.22],[740488.22,4555705.03],[740493.41,4555695.22],[740499.45,4555657.31],[740521.85,4555645.46],[740552.23,4555635.84],[740566.37,4555628.36],[740602.9,4555658.1],[740623.22,4555665.22],[740697.82,4555671.18],[740723.16,4555688.62],[740758.41,4555680.22],[740780.21,4555665.22],[740813.74,4555648.06],[740845.83,4555616.98],[740885.94,4555579.87],[740921.04,4555542.77],[740945.11,4555507.67],[740971.18,4555468.56],[740994.25,4555420.42],[741036.37,4555366.27],[741080.49,4555342.2],[741115.59,4555335.18],[741143.67,4555340.19],[741184.79,4555345.21],[741210.86,4555363.26],[741230.92,4555394.35],[741240.94,4555444.49],[741243.95,4555474.57],[741248.41,4555490.03],[741276.5,4555509.36],[741359.19,4555512.63],[741388.22,4555505.03],[741505.79,4555499.9],[741502.22,4555409.84],[741509.39,4555375.56],[741483.41,4555351.5],[741488.22,4555345.03],[741526.67,4555339.77],[741565.85,4555307.89],[741652.86,4555316.13],[741711.43,4555309.9],[741732.95,4555278.63],[741739.26,4555232.41],[741758.13,4555222.43],[741780.02,4555212.1],[741846.62,4555131.33],[741833.22,4555080.22],[741828.41,4555055.03],[741823.22,4555040.22],[741818.41,4555020.03],[741793.22,4554990.22],[741759.96,4554943.04],[741701.21,4554896.84],[741685.44,4554858.46],[741701.15,4554866.77],[741809.31,4554871.05],[741892.22,4554864.94],[741932.65,4554845.86],[741943.46,4554830.15],[741930.01,4554797.39],[741948.41,4554755.22],[741953.22,4554740.03],[741958.6,4554724.69],[741956.84,4554680.36],[741986.49,4554673.29],[741994.1,4554641.33],[742013.41,4554635.22],[742023.22,4554630.03],[742043.41,4554625.22],[742052.87,4554615.01],[742062.65,4554615.39],[742078.41,4554605.22],[742098.22,4554590.03],[742114.99,4554582.11],[742138.31,4554567.06],[742144.0,4554466.16],[742158.41,4554445.22],[742163.22,4554405.03],[742168.41,4554380.22],[742173.22,4554350.03],[742211.92,4554306.25],[742223.22,4554252.23],[742218.22,4554182.29],[742196.64,4554172.11],[742175.44,4554158.42],[742138.41,4554130.03],[742069.64,4554121.8],[742058.22,4554100.22],[742053.41,4554060.03],[742044.63,4554043.43],[742036.7,4553968.92],[742004.89,4553931.27],[741993.41,4553895.03],[741983.22,4553880.22],[741978.41,4553815.03],[741957.9,4553768.03],[741958.57,4553751.12],[741946.59,4553720.35],[741938.24,4553720.02],[741918.94,4553726.79],[741903.41,4553710.03],[741895.16,4553702.38],[741888.41,4553660.03],[741883.22,4553645.22],[741878.41,4553630.03],[741868.22,4553625.22],[741851.41,4553613.65],[741802.75,4553600.09],[741809.18,4553553.04],[741828.45,4553535.18],[741823.22,4553515.22],[741816.1,4553485.33],[741803.32,4553484.83],[741769.63,4553486.16],[741748.72,4553466.78],[741742.43,4553446.93],[741703.39,4553397.29],[741659.89,4553382.04],[741633.96,4553410.03],[741610.66,4553402.91],[741591.55,4553342.57],[741578.22,4553330.22],[741573.41,4553320.03],[741538.22,4553315.22],[741519.82,4553305.48],[741493.32,4553304.43],[741468.32,4553305.42],[741457.33,4553282.14],[741411.84,4553243.7],[741383.22,4553225.22],[741378.41,4553220.03],[741358.5,4553207.17],[741358.02,4553195.12],[741358.94,4553171.83],[741300.82,4553169.53],[741275.82,4553170.52],[741234.09,4553168.87],[741208.22,4553175.03],[741190.98,4553181.07],[741180.51,4553158.88],[741155.76,4553132.16],[741127.14,4553110.22],[741082.5,4553116.55],[741052.94,4553140.6],[741028.93,4553139.65],[741009.78,4553149.78],[740993.22,4553155.03],[740983.41,4553160.22],[740957.14,4553170.45],[740914.52,4553199.78],[740876.29,4553201.29],[740854.84,4553193.77],[740725.77,4553198.89],[740660.43,4553185.22],[740633.22,4553190.03],[740588.41,4553230.22],[740573.02,4553240.16],[740588.41,4553245.03],[740614.04,4553265.89],[740641.08,4553278.64],[740678.33,4553305.97],[740693.31,4553334.28],[740698.22,4553370.22],[740708.22,4553389.12],[740701.84,4553423.73],[740688.41,4553449.12],[740693.22,4553480.22],[740708.02,4553501.72],[740685.82,4553517.0],[740665.52,4553503.04],[740611.88,4553549.56],[740583.22,4553555.03],[740543.41,4553590.22],[740515.0,4553608.56],[740398.22,4553730.03],[740393.41,4553770.22],[740383.66,4553788.66],[740375.03,4553815.9],[740330.14,4553888.61],[740283.22,4553895.03],[740268.41,4553900.22],[740236.61,4553906.29],[740213.22,4553935.03],[740208.41,4553950.22],[740203.22,4553955.03],[740153.41,4554010.22],[740127.94,4554022.24],[740103.41,4554035.22],[740070.82,4554037.62],[740073.04,4554040.4],[740086.92,4554051.52],[740116.64,4554088.63],[740124.66,4554134.73],[740116.91,4554175.87],[740103.04,4554194.85],[740097.11,4554215.58],[740075.58,4554245.05],[740038.82,4554251.45],[740023.59,4554260.4],[739998.26,4554271.07],[739993.59,4554350.4],[739988.04,4554359.85],[739983.59,4554405.4],[739978.04,4554409.85],[739963.87,4554433.18],[739939.62,4554443.39],[739888.04,4554449.85],[739853.59,4554480.4],[739845.82,4554482.62],[739848.27,4554485.17],[739863.37,4554490.07],[739875.64,4554496.4],[739897.74,4554526.2],[739904.13,4554565.45],[739989.74,4554656.54],[740008.27,4554700.17],[740053.37,4554750.07],[740058.27,4554761.05],[740048.27,4554800.07],[740043.37,4554850.17],[740021.86,4554876.82],[740008.45,4554889.71],[740001.22,4554904.59],[739988.22,4554950.71],[739970.72,4554967.52],[739960.52,4554978.14],[739953.23,4555000.58],[739925.82,4555000.02],[739917.96,4555000.18],[739918.75,4555038.69],[739912.2,4555064.23],[739879.65,4555104.55],[739867.61,4555110.39],[739798.27,4555120.07],[739778.37,4555125.17],[739758.27,4555130.07],[739722.78,4555139.17],[739650.4,4555124.34],[739619.73,4555134.84],[739598.27,4555140.07],[739578.37,4555155.17],[739543.27,4555160.07],[739535.82,4555162.62],[739532.9,4555209.16],[739491.66,4555257.65],[739483.46,4555310.26],[739468.46,4555331.74],[739473.18,4555370.26],[739481.9,4555411.07],[739449.64,4555450.38],[739459.74,4555507.19],[739448.18,4555534.98],[739443.46,4555560.26],[739436.54,4555592.62],[739443.46,4555624.98],[739448.18,4555655.26],[739456.7,4555679.03],[739453.0,4555701.86],[739449.3,4555728.35],[739439.44,4555793.04],[739419.73,4555840.48],[739375.99,4555873.13],[739358.12,4555891.61],[739337.7,4555910.3]]]},"properties":{}}]}