{"type":"FeatureCollection","marmites":{"generated":"2026-09-11 17:01","generator":"code/tools/gis_to_dataset.py","source":"E:\\00code_ws\\LAMATA_new\\GIS\\Irr_Fields.shp","size":3764,"mtime":"2026-09-11 16:28","features":2,"crs":"EPSG:23029"},"features":[{"type":"Feature","geometry":{"type":"Polygon","coordinates":[[[741747.94,4554224.12],[741761.93,4554223.73],[741775.87,4554222.53],[741789.73,4554220.54],[741803.44,4554217.76],[741816.98,4554214.2],[741830.29,4554209.87],[741843.33,4554204.8],[741856.06,4554198.98],[741868.44,4554192.45],[741880.42,4554185.22],[741891.98,4554177.32],[741903.06,4554168.78],[741913.64,4554159.61],[741923.67,4554149.86],[741933.13,4554139.55],[741941.99,4554128.71],[741950.22,4554117.39],[741957.79,4554105.62],[741964.67,4554093.43],[741970.84,4554080.87],[741976.29,4554067.98],[741980.99,4554054.8],[741984.94,4554041.37],[741988.11,4554027.74],[741990.49,4554013.95],[741992.09,4554000.05],[741992.89,4553986.07],[741992.89,4553972.08],[741992.09,4553958.11],[741990.49,4553944.2],[741988.11,4553930.41],[741984.94,4553916.78],[741980.99,4553903.35],[741976.29,4553890.17],[741970.84,4553877.28],[741964.67,4553864.72],[741957.79,4553852.53],[741950.22,4553840.76],[741941.99,4553829.44],[741933.13,4553818.6],[741923.67,4553808.29],[741913.64,4553798.54],[741903.06,4553789.37],[741891.98,4553780.83],[741880.42,4553772.93],[741868.44,4553765.7],[741856.06,4553759.17],[741843.33,4553753.36],[741830.29,4553748.28],[741816.98,4553743.95],[741803.44,4553740.4],[741789.73,4553737.62],[741775.87,4553735.63],[741761.93,4553734.43],[741747.94,4553734.03],[741733.95,4553734.43],[741720.01,4553735.63],[741706.15,4553737.62],[741692.44,4553740.4],[741678.9,4553743.95],[741665.59,4553748.28],[741652.55,4553753.36],[741639.82,4553759.17],[741627.44,4553765.7],[741615.46,4553772.93],[741603.9,4553780.83],[741592.82,4553789.37],[741582.24,4553798.54],[741572.21,4553808.29],[741562.74,4553818.6],[741553.89,4553829.44],[741545.66,4553840.76],[741538.09,4553852.53],[741531.21,4553864.72],[741525.04,4553877.28],[741519.59,4553890.17],[741514.89,4553903.35],[741510.94,4553916.78],[741507.77,4553930.41],[741505.39,4553944.2],[741503.79,4553958.11],[741502.99,4553972.08],[741502.99,4553986.07],[741503.79,4554000.05],[741505.39,4554013.95],[741507.77,4554027.74],[741510.94,4554041.37],[741514.89,4554054.8],[741519.59,4554067.98],[741525.04,4554080.87],[741531.21,4554093.43],[741538.09,4554105.62],[741545.66,4554117.39],[741553.89,4554128.71],[741562.74,4554139.55],[741572.21,4554149.86],[741582.24,4554159.61],[741592.82,4554168.78],[741603.9,4554177.32],[741615.46,4554185.22],[741627.44,4554192.45],[741639.82,4554198.98],[741652.55,4554204.8],[741665.59,4554209.87],[741678.9,4554214.2],[741692.44,4554217.76],[741706.15,4554220.54],[741720.01,4554222.53],[741733.95,4554223.73],[741747.94,4554224.12]]]},"properties":{"field_id":1}},{"type":"Feature","geometry":{"type":"Polygon","coordinates":[[[742213.75,4554493.04],[742227.64,4554492.64],[742241.48,4554491.45],[742255.23,4554489.48],[742268.85,4554486.72],[742282.28,4554483.19],[742295.49,4554478.89],[742308.44,4554473.85],[742321.08,4554468.08],[742333.36,4554461.6],[742345.26,4554454.43],[742356.73,4554446.58],[742367.73,4554438.1],[742378.23,4554429.0],[742388.19,4554419.32],[742397.58,4554409.09],[742406.37,4554398.33],[742414.54,4554387.09],[742422.05,4554375.41],[742428.88,4554363.31],[742435.01,4554350.84],[742440.42,4554338.05],[742445.09,4554324.96],[742449.0,4554311.64],[742452.15,4554298.1],[742454.52,4554284.42],[742456.1,4554270.61],[742456.89,4554256.75],[742456.89,4554242.85],[742456.1,4554228.98],[742454.52,4554215.18],[742452.15,4554201.49],[742449.0,4554187.96],[742445.09,4554174.63],[742440.42,4554161.55],[742435.01,4554148.75],[742428.88,4554136.29],[742422.05,4554124.19],[742414.54,4554112.5],[742406.37,4554101.27],[742397.58,4554090.51],[742388.19,4554080.28],[742378.23,4554070.6],[742367.73,4554061.5],[742356.73,4554053.01],[742345.26,4554045.17],[742333.36,4554038.0],[742321.08,4554031.52],[742308.44,4554025.75],[742295.49,4554020.71],[742282.28,4554016.41],[742268.85,4554012.88],[742255.23,4554010.12],[742241.48,4554008.15],[742227.64,4554006.96],[742213.75,4554006.56],[742199.87,4554006.96],[742186.03,4554008.15],[742172.28,4554010.12],[742158.66,4554012.88],[742145.22,4554016.41],[742132.01,4554020.71],[742119.07,4554025.75],[742106.43,4554031.52],[742094.14,4554038.0],[742082.25,4554045.17],[742070.78,4554053.01],[742059.78,4554061.5],[742049.28,4554070.6],[742039.32,4554080.28],[742029.93,4554090.51],[742021.13,4554101.27],[742012.97,4554112.5],[742005.46,4554124.19],[741998.62,4554136.29],[741992.5,4554148.75],[741987.09,4554161.55],[741982.42,4554174.63],[741978.51,4554187.96],[741975.36,4554201.49],[741972.99,4554215.18],[741971.41,4554228.98],[741970.61,4554242.85],[741970.61,4554256.75],[741971.41,4554270.61],[741972.99,4554284.42],[741975.36,4554298.1],[741978.51,4554311.64],[741982.42,4554324.96],[741987.09,4554338.05],[741992.5,4554350.84],[741998.62,4554363.31],[742005.46,4554375.41],[742012.97,4554387.09],[742021.13,4554398.33],[742029.93,4554409.09],[742039.32,4554419.32],[742049.28,4554429.0],[742059.78,4554438.1],[742070.78,4554446.58],[742082.25,4554454.43],[742094.14,4554461.6],[742106.43,4554468.08],[742119.07,4554473.85],[742132.01,4554478.89],[742145.22,4554483.19],[742158.66,4554486.72],[742172.28,4554489.48],[742186.03,4554491.45],[742199.87,4554492.64],[742213.75,4554493.04]]]},"properties":{"field_id":1}}]}